name,adresse1,postal_code,commune,city,latitude,longitude,phone,email,website,access,epoque,descriptif
Château d'Albigny,Montée du Vieux château,69250,Albigny-sur-Saône,,45.873054,4.828918,,,,Bus 43 : Albigny centre / Gare d'Albigny-sur-Saône,XIIe ,"Château fort construit à partir de 1173, reposant sur une motte castrale."
Maison de l'accueil,2 rue Jean Chirat (D 51),69250,Albigny-sur-Saône,,45.865482,4.832073,,,,Bus 43 : Albigny Centre,XVIIIe ,"Maison des champs datant du début du XVIIIe siècle, dont les murs du salon ont été peints à la détrempe par Daniel Sarrabat en 1710. Ces sept panneaux racontent l'histoire d'Esther."
Eglise,17 rue Germain,69250,Albigny-sur-Saône,,45.865594,4.832208,,,,Bus 43 : Albigny Centre,,
Musée,17 rue Victor Hugo,38300,Bourgoin-Jallieu,Bourgoin-Jallieu,45.586636,5.279068,,,,,,
 Aéromusée de la région lyonnaise,"Fort de Bron - Chemin vieux, avenue de Lattre de Tassigny",69500,Bron,,45.731464,4.917730,,,,"T2, T5 : Les Alizés - Bus C15 : Fort de Bron",XIXe ,Musée et exposition dans deux salles voûtées du fort de Bron.
Lyon Bron Open Lab,215 boulevard Pinel,69500,Bron,,45.731659,4.888219,,,,Métro : Mermoz-Pinel (proche de l'entrée des Galeries Lafayette),XXIe ,"L’Open Lab est un espace de rencontre, de conception, de création, de construction et d’exposition au travers d’animations ludiques dans un esprit co-créatif.Un laboratoire urbain qui accompagne le chantier SYTRAL, puis l'extension à venir des Galeries Lafayette de Lyon Bron."
MJC Louis Aragon,Place Gaillard Romanet,69500,Bron,,45.742248,4.908248,,,,Bus : C17 arrêt Marne-Lacouture,XXIe ,"Véritable laboratoire citoyen de fabrication, la Fabrique d'Objets Libres met à disposition de ses adhérents des outils à commande numérique et des matières premières secondaires permettant de concevoir des objets libres. "
Musée François-Saïssi,87 avenue Ferdinand Buisson,69500,Bron,,45.738710,4.917161,,,,Tram T2 : arrêt Les alizés. Bus C15 : De Tassigny-Curial,,"Centre d’histoire des Anciens combattants, résistants et victimes de guerre."
Fort de Bron,"Chemin vieux, avenue de Lattre de Tassigny",69500,Bron,,45.731464,4.917730,,,,"T2, T5 : Les Alizés - Bus C15 : Fort de Bron",,"Fort Séré de Rivière, construit à partir de 1874, maillon de la ceinture militaire de Lyon"
Atelier de ferronnerie d'Art Gilles Tavernier,185 route du Grand Guillermet,69270,Cailloux-sur-Fontaines,,45.854746,4.870244,,,,Bus 77 : Cailloux Centre,XXe ,L’atelier de trois générations de maréchal-ferrant s'oriente définitivement aujourd'hui vers la Ferronnerie d'Art.
Centre culturel de Cailloux-sur-Fontaines,74 avenue du 11 Novembre,69270,Cailloux-sur-Fontaines,,45.852240,4.872630,04 78 22 55 11,,,Bus 77 : Cailloux Centre,,
Usine des eaux,2 avenue de Poumeyrol,69300,Caluire-et-Cuire,,45.789686,4.858970,,,,"Bus 70, 171, C1, C2, C5 : Saint-Clair Square Brosset / 9 : Les Eaux",XIXe ,Ce site industriel a alimenté en eau la ville de Lyon jusqu'en 1976. L’impressionnante pompe de Cornouailles est classée Monument historique.
La casemate de Montessuy,3 rue Paul Painlevé,69300,Caluire-et-Cuire,,45.791213,4.841881,,,,Bus C1 : Montessuy Calmette,XIXe ,"Partie de la ceinture défensive de Lyon, la casemate reliait les forts de Caluire et de Montessuy. Désaffectée, elle servit successivement d'abri antiaérien puis de champignonnière dans les années 60. "
Eglise de l'Immaculée Conception,Place de l'Eglise,69300,Caluire-et-Cuire,,45.799936,4.848284,,,,"Bus 33, 38, S5, S8 : Caluire Centre",XIXe ,"La première église du bourg date de 1650, démolie en 1690, elle fut reconstruite au XIXe siècle en pisé. Le portail et le fronton sont en pierre de Couzon."
Église de Saint-Clair,42 cours Aristide Briand,69300,Caluire-et-Cuire,,45.785175,4.846808,,,,Bus 9 : Bellevue,XIXe ,"L'église de Saint Clair est l’œuvre du célèbre architecte lyonnais, Sainte Marie Perrin, successeur de Pierre Bossan pour la basilique de Fourvière. Chemin de Croix original et importante collection d'objets et de vêtements sacerdotaux."
Hôtel de Ville,Place du Docteur Dugoujon,69300,Caluire-et-Cuire,,45.796565,4.842396,04 78 98 80 80,,,Bus 33-38-S5 : Caluire Hôtel de Ville,XIXe  ,"Maison d'architecture néoclassique,de 1846. Les façades sont inscrites à l'Inventaire des Monuments historiques."
Chapelle Saint-Joseph,Place du Docteur Dugoujon,69300,Caluire-et-Cuire,,45.796565,4.842396,04 78 98 80 80,,,Bus 33-38-S5 : Caluire Hôtel de Ville,XIXe  ,"Parfait exemple de l'art religieux lyonnais de la fin du XIX siècle, cette chapelle est l'œuvre de Sainte Marie Perrin est se trouve dans l'actuel hôtel de ville. "
Domaine de l'Oratoire,2 rue de l'Oratoire,69300,Caluire-et-Cuire,,45.783550,4.842491,,,,"Bus 38 : Cuire puis rejoindre la rue de l’Oratoire / Bus S5, C13 : Carette / Bus C1 : square Élie Vignal",XVIIe ,"Situé dans le quartier de Bissardon, cet ancien collège de jésuites (1620), qui fut également un pensionnat de jeunes filles, abrite actuellement l'Institut de Formation des Maîtres de l'Enseignement Catholique. Depuis les terrasses, un des plus beaux panoramas sur Lyon, les Alpes et les Monts du Lyonnais."
Jardins de La Rivette,46 quai Clémenceau,69300,Caluire-et-Cuire,,45.794445,4.831013,04 78 27 00 49,,,Bus 40 : Ile-Barbe,XVIIIe ,La Rivette est une maison de plaisance construite entre 1738 et 1740 vraisemblablement par Soufflot.
Jardins ouvriers,Rue Abbé Lemire,69300,Caluire-et-Cuire,,45.787666,4.846914,,,,Bus C13 : Clos de la Jeunesse,XXe ,"22 jardins ouvriers rassemblés, dans le quartier de Montessuy, offrant une vue imprenable sur les Alpes et sur l'agglomération."
Mémorial Jean-Moulin – Maison du Docteur Dugoujon,2 place Gouailhardou,69300,Caluire-et-Cuire,,45.799427,4.846172,,,,Bus 33-38-S5 : Caluire centre ; Bus C1-C2 : Caluire place Foch,,"Le Mémorial Jean Moulin est un lieu hautement symbolique où furent arrêtés, le 21 juin 1943, Jean Moulin et sept responsables de mouvements de résistance. La maison, restaurée, a été classée Monument historique."
Périphérique Nord,Chemin de la Belle-Cordière,69300,Caluire-et-Cuire,,45.790671,4.868133,,,,Bus 9-70-C1-C2-C5 / Ligne départementale 171. Navette gratuite mise à disposition en bas de la montée des Soldats (arrêt bus : Square Brosset lignes C5 et 171) Accès facile par la route (fléchage mis en place à proximité du site). Parking sur place,,"Le Périphérique Nord est un ouvrage urbain complexe à péage, d'une longueur de 10 km, composé de 4 tunnels, de 2 viaducs, de 7 portes et de 2 gares de péage."
Église Saint Bernadette,14 rue Paul Painlevé,69300,Caluire-et-Cuire,,45.791160,4.844174,,,,Bus C1 : Montessuy Calmette,,
"Passerelle de la Paix, côté Caluire","Grande Rue de Saint-Clair, Parc de Saint-Clair",69300,Caluire-et-Cuire,,45.787543,4.854380,,,,Bus C1- C2-C5-9-70 : Saint-Clair - Square Brosset,,
Centre Paul Morand,Place de la Mairie,69410,Champagne-au-Mont-d'Or,,45.795647,4.790150,,,,Bus 61 : Champagne Centre,,
Eglise Notre-Dame de l'Assomption,Place de l'Eglise,69260,Charbonnières-les-Bains,,45.778480,4.744317,,,,Bus 86 : Momet - TER : gare de Charbonnières-les-Bains,XXe ,Église néo-gothique dédiée à Saint-Roch comportant un orgue d’esthétique du début XIXe siècle.
Eglise Notre-Dame,Rue Pierre Juffet,69390,Charly,,45.644915,4.795252,,,,Bus 78 : Église puis 150 mètres à pied,XIIIe ,"Église restaurée en 2010 et jardin de la Paix. Peintures murales de Frenet, retables, statues et autres mobiliers classés Monuments historiques."
Château seigneurial,225 route de l'Etra,69390,Charly,,45.647381,4.795145,,,,Bus 78 : Charly-centre,XIVe ,"Château fort construit de 1315 à 1323 par Guillemet Miriboilli, pourvu à l’époque de nombreuses tours et donjons, d’un verger, de vignes, de douves et d’un étang."
Domaine Melchior Philibert,275 rue de l'Église,69390,Charly,,45.646822,4.796079,,,,"Bus 78 : Charly centre ou Eglise, puis 5 mn à pied",XIVe-XVIIe,"Domaine classé aux Monument historique avec maison des champs (XVIIe), peintures murales classées MH de Daniel Sarabat (1701), parc de 9 ha, pavillon, tour, belvédère, vestiges de jardins à la française. "
Médiathèque municipale - Espace Pierre Poivre,62 rue Oreste Zénézini,69680,Chassieu,,45.744114,4.970058,04 37 42 14 40,,,Bus 68-76 : Chassieu Mairie,,
Eglise Saint-Nizier du Vieux Collonges,10 rue du Vieux Collonges,69660,Collonges-au-Mont-d'Or,,45.825465,4.829071,,,,Bus 71 : Chantemâle,VIIe-XVIIe,"Transformée au cours des siècles, elle devient à la Révolution Temple de la raison. Des travaux de restauration sont entrepris en 1935 et 1965."
Mairie,Place de la Mairie,69660,Collonges-au-Mont-d'Or,,45.823606,4.840044,,,,Bus 71 : Écoles de Collonges,,
Aérodrome Lyon - Corbas,Rue Clément Adler,69960,Corbas,,45.656873,4.916317,04 72 50 28 42,,,Bus 76 : Les dauphins (samedi) - Bus 54 : Rue du midi,XXe ,"Implantée sur le terrain d'aviation de Lyon-Corbas, l'association Les Ailes Anciennes de Corbas préserve en état de vol des appareils du patrimoine aéronautique."
Les chocolats d'Abi et Lisa,14 avenue de la Villermé,69960,Corbas,,45.670495,4.900189,,,,Bus 54 : Corbas Mairie,,"Chocolaterie : fabrication de bonbon chocolat, moulages."
Musée de l'aviation Clément Ader - Espaces Aéro Lyon Corbas EALC - Parc de loisirs,rue Nungesser et Coli,69960,Corbas,,45.656769,4.909046,,,,,,"Histoire du patrimoine aéronautique en Rhône-Alpes : le musée présente une collection d'aéronefs restaurés, propulseurs allant des moteurs ""en étoiles"" aux propulseurs de fusées."
Marché de gros,69 rue Marcel Mérieux,69960,Corbas,,45.673028,4.925927,,,,Bus 87 (au départ de la Gare de Vénissieux) : Pôle Agro-Alimentaire,,"Premier marché de gros privé français en fruits et légumes, plate-forme d'approvisionnement du commerce de proximité."
Eglise Saint-Maurice,Place Emile Fayard,69270,Couzon-au-Mont-d'Or,,45.845635,4.828856,,,,Bus 40 : Couzon,XIIIe-XIXe ,Cette église construite en 1855 doit son architecture à Pierre Bossan. Son clocher du XIIIe siècle est inscrit sur la liste des monuments historiques.
Musée de la blanchisserie,104 avenue Joachim Gladel,69290,Craponne,,45.748504,4.721302,,,,Bus C24 ou 73 : Craponne Centre,XXe ,"Situé dans l’ancienne usine des établissements Gladel, fabricants de machines à laver de 1902 à 1991, le musée présente 200 objets du début du XXe siècle, machines à laver et à essorer, fers à repasser "
Salle des fêtes Les enfants de Craponne,Avenue Jean Bergeron,69290,Craponne,,45.746042,4.722278,04 78 44 89 55,,,Bus C24 ou 73 : Craponne Centre,,
Mairie,1 place Charles de Gaulle,69290,Craponne,,45.743400,4.723234,,,,"Bus C24, 73 : Craponne Mairie",,
Château,Route des Monts d'Or,69250,Curis-au-Mont-d'Or,,45.868163,4.819539,,,,Bus 84 : Curis-la-Planche,XIIe ,"Maison forte érigée au cœur d’une châtellenie foncière. Fin XIXe-début XXe siècle, le paysagiste Luizet se voit confier la réalisation d’un parc romantique ou parc paysager."
Aqueduc de la Brévenne,Parc de L'Aqueduc,69570,Dardilly,,45.812115,4.754126,,,,Bus 89 : Les Peupliers,Ier ,Construit par l’empereur Claude pour acheminer les eaux de la rivière de la Brévenne jusqu’à la capitale des Gaules.
Fort du Paillet,Chemin du Fort,69570,Dardilly,,45.824607,4.748144,,,,Bus 3 : Le Paillet - GE4-86 : La Tour de Salvagny,XIXe ,Fort construit entre 1883 et 1886 dans le cadre d’une couronne de défense de Lyon décidée après la guerre de 1870. 
Eglise Saint-Jean-Marie-Vianney,Place de l'Église,69570,Dardilly,,45.805454,4.753198,,,,Bus 3 : Dardilly-le-Bas,XIXe ,Eglise néo-gothique en pierre de taille conservant la cuve de cuivre rouge sur laquelle Saint-Jean Marie Vianney reçut le baptême.
Musée des Outils d'antan,Fort du Paillet - Chemin du Fort,69570,Dardilly,,45.824607,4.748144,,,,Bus 3 : Le Paillet - GE4-86 : La Tour de Salvagny,XIXe ,"Musée des outils d'antan, outils agricoles, vinicoles, outils du bois et de la vie courante."
Ancien presbytère,6 chemin de la Grabotière,69570,Dardilly,,45.805848,4.753407,,,,Bus 3 : Dardilly-le-Bas,XVIIIe ,"Bâtiment en pierres à trois niveaux, construit en 1766 et restauré en 1983. "
Maison natale du Curé d'Ars,2 rue du Curé d'Ars,69570,Dardilly,,45.804744,4.753488,,,,Bus 3 : Dardilly-le-Haut,XVIIIe-XIXe,"Maison située près de l’église du bourg, appartenant encore aux descendants de la famille Vianney, où le futur curé d’Ars passa les 20 premières années de sa vie."
Lavoir du Clair,Chemin du Lavoir,69570,Dardilly,,45.819050,4.745530,,,,Bus 3 : Dardilly - Le Paillet,XXe ,Lavoir construit en 1901 à l’emplacement d’une ancienne mare par l’architecte Louis Duclos. 
Ecole de Musique,59 chemin de la Liasse,69570,Dardilly,,45.812318,4.755566,,,,Bus 3 : Dardilly-le-Bas,XXIe ,"L’école de musique, inaugurée en 2012, est construite suivant les normes BBC (bâtiment basse consommation) et ancrée dans la pente pour une insertion harmonieuse dans l’environnement."
,Place de l'Église,69570,Dardilly,,45.805454,4.753198,,,,Bus 3 : Dardilly - Le Paillet,,"Dardizillieu, ancêtre de Dardilly, a été fortifié au début du XIIIe sous l'impulsion de Renaud de Forez, archevêque de Lyon et seigneur du village."
Chemin de la Beffe,0,69570,Dardilly,,45.808925,4.732769,,,,Bus 86 : Montcourant,,
Chemin de l'Orée du Bois,0,69570,Dardilly,,45.797227,4.757316,,,,Bus 3 : Bois de Dardilly,,
Mairie de Dardilly,Place Bayère,69570,Dardilly,,45.806306,4.753684,04 78 66 14 50,,http://www.dardilly.fr,Bus 3 : Dardilly-le-Bas,,
Le Toboggan,14 avenue Jean Macé,69150,Décines-Charpieu,,45.768904,4.955836,04 72 93 30 00,,,"Tram T3, Bus 67 : Centre-ville",XXe,"Centre culturel conçu par les architectes Michael Munteanu et Perianu dans un esprit très contemporain, qui regroupe plusieurs équipements : théâtre, cinéma, espace d’exposition, médiathèque"
Entreprise Gifrer et Barbezat,08 et 10 rue Paul Bert,69150,Décines-Charpieu,,45.769473,4.950529,,,,"Tram T3 : arrêt Décines centre, puis poursuivre à pied (10mn)",XXe,"Entreprise pharmaceutique française, spécialisée dans la production de produits pour l'officine depuis le début du XXe siècle, où en 1912 l'entreprise acquiert une ancienne usine de films."
Centre National de la Mémoire Arménienne (CNMA),32 rue du 24 Avril 1915,69150,Décines-Charpieu,,45.768394,4.946901,,,,Tram T3 : arrêt Décines-centre et 5' de marche – Bus 67 : arrêt Décines Wilson et 1' de marche,,Le CNMA est un nouvel acteur culturel de la Métropole de Lyon à rayonnement régional et national. Sa philosophie pourrait être : “Rester soi en devenant autre” gage d'une capacité vivante de création culturelle.
Hôtel de ville,Place Roger Salengro,69150,Décines-Charpieu,,45.769136,4.956944,,,,"Tram T3, Bus 67 : arrêt Centre Ville",,
Château du Vivier,6 chemin du Trouillat,69130,Écully,,45.776835,4.772452,,,,"Bus 3, 55 : Trouillat – Bus 19 : Écully Centre",XIXe ,"Construit entre 1880 et 1884, dans le style néo-gothique par l'architecte Cahuzac, disciple de Violet-le-Duc, le château est entouré par un parc dessiné par le paysagiste écullois Luizet."
Place de la Libération,0,69130,Écully,,45.775544,4.778226,,,,"Bus 3, 19 : Écully Centre",,"La place de la Libération est au centre d'Écully. S'y trouvent l'église Saint-Blaise, le monument de la victoire et la mairie. "
Centre culturel ,21 avenue Edouard Aynard,69130,Ecully,,45.779082,4.778484,04 78 33 64 33,maison-rencontre-ecully@wanadoo.fr,,Bus 3-19 : Centre culturel,,Nouveau Centre Culturel réhabilité.
Fort de Feyzin,Route du Docteur Long,69320,Feyzin,,45.674278,4.865966,,,,"Bus 60, 39 : arrêt La Bégude ou Feyzin Mairie",XIXe  ,Fort militaire maillon de la chaîne des forts de l'agglomération lyonnaise.
Maison de la culture,Rue de Saint-Just-Malmont,42700,Firminy,Firminy,45.376088,4.292563,04 77 10 07 77,,,,,
Espace Fleurieu,Rue du stade,69250,Fleurieu-sur-Saône,Saint-Étienne,45.863494,4.845906,,,,"Bus 40, 70 : arrêt Fleurieu",,
Moulin de la Terrasse,545 rue des Prolières,69270,Fontaines-Saint-Martin,Vienne,45.846160,4.860760,,,,Bus 77 : Fontaines Saint-Martin Centre. Prendre la rue des Prolières sur 500 mètres,XIIIe ,"Dans un site exceptionnel, le Moulin de la Terrasse, avec sa roue à augets, accueille un micro-musée de meunerie, patrimoine de la famille Pittiou depuis 100 ans. Exposition de sculptures de Marc Pittiou."
Eglise,Place de l'Eglise,69270,Fontaines-Saint-Martin,,45.845293,4.854705,,,,Bus 77 : Fontaines-Saint-Martin-Centre,,
Moulin - Ecomusée,Allée Jacques Sève - Esplanade Charles-de-Gaulle,69270,Fontaines-Saint-Martin,,45.844968,4.856975,,,,Bus 77 : Fontaines-Saint-Martin-Centre,,
Fort du Bruissin,Rue du Château d'eau,69340,Francheville,,45.730562,4.739372,04 72 32 92 98,,,Bus C20E : Fort du Bruissin,XIXe ,"Edifié après la guerre de 1870 par le Général Séré de Rivières pour renforcer la ceinture des forts qui protégeaient Lyon, il accueille depuis 2008 un centre d’art contemporain."
Ecole Intercommunale de l'Etoile d'Alaï,Chemin de la Poterie,69340,Francheville,,45.749116,4.760921,04 78 34 30 99,,,"Bus C24, 73 : Rond point d'Alaï",XXIe ,Cette construction de 1915 m² accueillant jusqu’à 320 élèves fait l’objet d’une démarche collective d’optimisation énergétique et environnementale.
Médiathèque IRIS,1 montée des Roches,69340,Francheville,,45.730719,4.765191,04 37 23 68 37,mediatheque@mairie-francheville69.fr,http://www.mairie-francheville69.fr,Bus C20E : Gare de Francheville,,
Mairie,Place des libertés,69730,Genay,,45.897330,4.840763,04 78 91 45 79,,http://www.paroisses-valdesaone.com,Bus 43 : Genay,,La salle du conseil a été entièrement remaniée et rénovée en 2015. Cinq vitraux rénovés de l'artiste-verrier local Augustin Burlet ornent les murs.
Eglise Saint-Martin-de-Cornas,Hameau de Saint-Martin-de-Cornas,69700,Givors,,45.586301,4.715559,,,,D2e depuis la D 34 ou route de Mornant (au départ de Givors),Xe ,Hameau agricole typique des villages du Lyonnais. De la chapelle (Xe siècle) vue sur les paysages s'étendant du Pilat au plateau de Mornant et aux Monts du Lyonnais.
Eglise Saint-Pancrace de Bans,Chemin du Fortunon,69700,Givors,,45.572684,4.786739,,,,Bus 81 : Abricotiers,XIIe ,"Eglise romane. Situé au sud de Givors, au pied de la colline, le quartier de Bans et ses habitants ont développé une spécialité de poteries à usage domestique qui perdurera jusqu'à la fin du XIXe siècle. L'agriculture et le transport fluvial sont deux des autres particularités de Bans. "
Eglise Saint Nicolas,Place de l'Eglise,69700,Givors,,45.582934,4.775504,,,,"Bus 80, 81 : Givors Hôtel de Ville",XIXe  ,"""Monsieur le Curé, vous avez fait un miracle et ce miracle est une merveille"" : aux dires d’un éminent prélat de l’époque, un style original et unique qui justifie une visite… Vitraux monumentaux attribués à de grands maîtres verriers du XIXe siècle, un orgue Merklin, des tableaux du XVIIe siècle, dont 2 classés Monument historique."
Moulin de Givors,Impasse Platière,69700,Givors,,45.589423,4.768466,,,,"Bus 78, 80 : arrêt Givors-Leclerc",XXe ,"Ancienne minoterie du quartier de Canal, symbole de la vie industrielle de Givors, Le Moulin Madiba, inauguré en février 2014, est aujourd’hui le pôle culturel de la ville."
La Mostra,3 rue du Suel,69700,Givors,,45.582341,4.772530,,,,"Bus 80, 81 : Givors Hôtel de Ville",XXe ,La Mostra est un lieu d’exposition située au cœur de la Cité des étoiles de Jean Renaudie qui a reçu en 2003 le label du patrimoine du XXe siècle.
Mosquée Khaled Ibn El Walid - Grande Mosquée de Givors,Impasse Honoré Pététin,69700,Givors,,45.592645,4.772722,04 78 51 42 63,mosquee-de-givors@outlook.fr,,Bus 78 : Pététin,,"Inaugurée en 2013 la mosquée Khaled Ibn Walid de Givors a été réalisée par l'architecte Ibn Abdelkin kamal, selon des plans en référence aux Etoiles de Jean Renaudie, Dotée d'une bibliothèque, la mosquée est lieu cultuel et culturel."
,Place Jean Jaurès,69700,Givors,,45.582760,4.774228,,,,"Bus 80, 81 : Givors Hôtel de Ville",,
Théâtre de Givors,Rue Puits Ollier,69700,Givors,,45.581478,4.774017,,,,Bus 80 et 81 : Givors Hôtel de Ville,,
Halte fluviale,Quai de la navigation - Promenade Maurice Thorez,69700,Givors,,45.588186,4.774890,,,,,,
Mairie de Givors,Place Camille Vallin,69700,Givors,,45.582431,4.773854,04 72 49 18 18,,http://www.givors.fr,Train TER : Givors-Ville ; Bus 101 : Givors-Ville,,
Les souterrains de Grigny,Rue du 11 novembre 1918,69520,Grigny,,45.608161,4.791151,,,,"Bus 80, 78 : Mayer - TER : Grigny-le-Sablon",XIIe  ,"Souterrains situés sous les jardins de l'hôtel de ville de Grigny (ancien château), autrefois cellules pour les prisonniers. "
Hôtel de Ville,3 avenue Jean Estragnat,69520,Grigny,,45.609003,4.789428,,,,TER : Grigny-le-Sablon ; Bus 80,XVIIe  ,Château de 1620 possédant l’un des plus vastes ensembles de peintures murales à la détrempe du XVIIe siècle de la région Rhône-Alpes. 
La Rotonde - Centre de triage ferroviaire,Avenue Marcellin Berthelot,69520,Grigny,,45.602734,4.789524,,,,Bus 78 : Terrasse des Arboras - TER : Grigny-le-Sablon,XXe  ,"Emblème de la gare du triage de Badan. Construite en 1945, la Rotonde se situe le long des voies de chemin de fer reliant Saint-Étienne à Givors. "
Fort de Montcorin,3 chemin du Châtaignier,69540,Irigny,,45.677649,4.807673,,,,Bus 15 : Champvillard (5 minutes à pied),XIXe ,"Fort construit de 1879 à 1881, maillon de la ceinture de défense de la ville de Lyon."
Patadôme Théâtre,62 rue d'Yvours,69540,Irigny,,45.686720,4.826638,,,,Bus 18 depuis Perrache : Yvours ou Le Broteau - Bus 15 : arrêt Le Péage,XXIe ,Un théâtre à l'architecture unique et atypique : une construction 100% bois. Une demi-sphère de bois constitue un espace scénique modulable à l'acoustique surprenante.
Département professionnalisation des salariés (Centre de formation RTE),23 avenue Lionel Terray,69330,Jonage,,45.769704,5.034727,,,,Tram T3 : arrêt Meyzieu ZI. Bus 198 : arrêt Meyzieu ZI,,"Unique en France, le centre de formation Réseau de Transport d’Electricité (RTE) de Jonage reproduit les conditions réelles de travail des salariés grâce à des installations pédagogiques illustrant la diversité des appareillages rencontrés sur le terrain. Il accueille chaque année plus de 2500 stagiaires."
Maison du Confluent,1 place Général Leclerc,69350,La Mulatière,,45.727753,4.806561,,,,Bus 15 : Maison du Confluent,XIXe ,Edifice construit entre 1894 et 1896 selon les plans de l'architecte Henri Moncorger.
La bonne Maison,101 chemin de Fontanières,69350,La Mulatière,,45.741588,4.809020,04 78 86 62 00,mairie@lamulatiere.fr,http://lamulatiere.fr,Bus C 19 : Léon-Favre,,"Jardin privé, comportant roses anciennes et botaniques, vivaces, clématites, bulbes."
Ecocentre du Lyonnais,60 chemin du Jacquemet,69890,La Tour-de-Salvagny,,45.813165,4.700947,,,,Bus 86 : Les Chambettes,,"Le lieu comprend un bâtiment de 500m2 bâtis en bois, paille, terre et chaux ainsi que 2,2 hectares de jardins dédiés à la découverte et la protection de la nature."
Embranchement Route du Puy d'Or et chemin de Beluzes,0,69760,Limonest,,45.820136,4.775202,04 72 52 25 80,,,Bus 21 : Hameau du Puy d'Or,,"La découverte sur la crête du chemin de Saint-André à Limonest d'un habitat qui a évolué lentement, du Moyen-Age à nos jours."
Château du Bois Dieu,0,69380,Lissieu,,45.844941,4.743126,,,,Bus 21 : Plambeau  ; Bus 61 : Lissieu le Nelie,XVIIIe ,Le château du Bois Dieu bénéficiait dans son parc d’une glacière qui fait l’objet d’un important programme de rénovation.
Amphithéatre des Trois Gaules,Rue Lucien Sportisse,69001,Lyon 1er,,45.770415,4.830562,,,,"Bus C18, C13 : Mairie du 1er - S12-S6 : Jardin des plantes",Antiquité,"Vestiges de l’amphithéâtre, classé Monument historique, construit aux Ie et IIe siècles à la gloire de Rome et d’Auguste."
Collège la Tourette,80 boulevard de la Croix Rousse,69001,Lyon 1er,,45.773776,4.825203,,,,Bus C13 : Clos Jouve - métro C : Croix-Rousse,XIXe ,"Ancienne école normale d’institutrices, restructurée en collège contemporain en 2013."
Passage Thiaffait,19 rue René Leynaud,69001,Lyon 1er,,45.769752,4.833163,,,,"Métro C : station Croix Paquet - Bus C13, C18, S6 : Mairie du 1er",XIXe ,"Autrefois lieu de référence architecturale et espace d’habitation, cette traboule est également aujourd’hui le lieu de la jeune création de mode et du design à Lyon."
Institution des Chartreux,58 rue Pierre Dupont,69001,Lyon 1er,,45.771886,4.822483,,,,Bus C13-C18-2-45-S4 : Clos Jouve et les Esses,XIXe ,"Chapelle de l'Institution des Chartreux à Lyon, construite entre 1860 et 1864."
Eglise réformée des Terreaux,10 rue Lanterne,69001,Lyon 1er,,45.766540,4.831792,,,,"Métro A et C : station Hôtel de Ville - Louis Pradel - Bus : C3, C18, S6, C13, 19, 44, N12 : Terreaux",XIXe ,Église de style néogothique (1856). Orgue Joseph Merklin de 1891 installé en tribune.
Chapelle des Chartreux,52 rue Pierre Dupont,,Lyon 1er,,45.771267,4.821921,,,,"Bus C13, C18, 2, 45, S4 : Clos-Jouve ou les Esses - S12 : Les Chartreux",XIXe,"Chapelle de l'Institution des Chartreux à Lyon, construite entre 1860 et 1864."
Eglise Saint Bruno des Chartreux,52 rue Pierre Dupont,69001,Lyon 1er,,45.771267,4.821921,,,,"Bus C13, C18, 2, 45, S4 : Clos-Jouve ou les Esses - S12 : Les Chartreux",XVIe-XVIIIe ,"Eglise baroque de l'ancienne chartreuse de Lyon, cloître, salle capitulaire, baldaquin unique drapé de tissu véritable."
Fort Saint-Jean - Ecole Nationale du Trésor Public,21 montée de la Butte,69001,Lyon 1er,,45.769949,4.815676,,,,Bus C13-C18 : Duroc,XVIe-XIXe ,Le fort Saint-Jean abrite l’École nationale des Finances Publiques.
CAUE Rhône Métropole,6bis quai Saint-Vincent,69001,Lyon 1er,,45.768757,4.815217,,,,"Bus C14, 19, 31, 40, 45 : Pont Koenig (rive droite ou rive gauche)",XVIIe-XXe,Bâtiment accroché à la montée de la Butte sur un site prestigieux le long des rives de Saône qui accueille depuis 1988 le CAUE
Ecole nationale supérieure des beaux-arts de Lyon (ENSAL),8 bis Quai Saint Vincent - Réfectoire des nonnes,69001,Lyon 1er,,45.767916,4.817259,,,,"Bus C14, 19, 31, 40 : Les Subsistances ou Homme de la Roche",XVIIe ,"Ancien réfectoire du couvent de religieuses de l'Ordre de La Visitation, le Réfectoire des nonnes est aujourd'hui la galerie d'exposition de l'ENSBA."
Eglise Saint Polycarpe,25 rue René Leynaud,69001,Lyon 1er,,45.769890,4.834027,,,,"Métro A : station Hôtel de Ville-Louis Pradel - Métro C : station Croix-Paquet - Bus 6, 13, 18 : Mairie du 1er",XVIIe ,"Achevée en 1670, à l’exception de la façade construite en 1756, l’église apparaît principalement par sa façade monumentale, classique, avec pilastres et chapiteaux corinthiens."
Les Subsistances,8bis quai Saint Vincent,69001,Lyon 1er,,45.768123,4.815959,+33 (0)4 78 39 10 02,,http://www.les-subs.com,"Bus C14, 19, 31, 40 : Les Subsistances ou Homme de la Roche",XVIIe ,"Ancien couvent puis site militaire, les Subsistances sont aujourd'hui un laboratoire international de création artistique."
Musée des Beaux-Arts de Lyon,20 place des Terreaux,69001,Lyon 1er,,45.767191,4.833501,,contact@mba-lyon.fr,http://www.mba-lyon.fr,"Métro A et C - Bus C3, 3, 6, 13, 18, 19, 44, 91 : station Hôtel de Ville – Louis Pradel",XVIIe ,"Ancienne abbaye et cloître du XVIIe siècle, havre de paix en plein cœur de Lyon."
Clos Saint-Benoît,3 rue Saint Benoît,69001,Lyon 1er,,45.768740,4.826019,,,,"Bus 3, 19, 31, 40, C14 : Passerelle Saint-Vincent - Métro : station Hôtel de Ville (+10 minutes à pieds) - Bateau vaporetto à Saint-Paul.",XVIIe ,Cloître de bénédictines agrémenté d'un espace vert public et récemment d'un jardin pédagogique.
Hôtel de Ville de Lyon,Place de la Comédie,69001,Lyon 1er,,45.767801,4.835997,04 72 10 30 30,lyonendirect@mairie-lyon.fr,,"Bus C3, 13, 18, Métro A : Hôtel de Ville-Louis Pradel",XVIIe ,"Conçu par Simon Maupin, Lemercier, et Gérard Desargues, l'Hôtel de Ville a été achevé en 1672. Il est à l'époque perçu comme une réplique du Louvre à l'échelle de Lyon et reconnu comme le plus bel Hôtel de Ville de France."
Archipel - Centre de Culture Urbain,21 place des Terreaux,69001,Lyon 1er,,45.767195,4.833625,,,,"Métro A et C - Bus 1, 3, 6, 13, 18, 19, 44 : Hôtel-de-Ville",XVIIe ,Outil culturel de création et de sensibilisation des publics à l’architecture et la ville contemporaine.
Opéra de Lyon,Place de la Comédie,69001,Lyon 1er,,45.767801,4.835997,,contact@opera-lyon.com,http://www.opera-lyon.com,"Métro A-C, Bus : Hôtel de Ville - Louis Pradel",XVIIe-XXe,"Inauguré en mai 1993, l'opéra ""Nouvel"" est devenu ""Opéra national de Lyon"" en 1996."
Le Grenier d'Abondance ( DRAC Rhône-Alpes),6 quai Saint Vincent,69001,Lyon 1er,,45.769447,4.814609,,,,"Bus C14, 19, 31, 40, 45 : Pont Koenig",XVIIIe ,"Édifié entre 1722 et 1728 pour le stockage du blé, transformé dès l’Ancien Régime en bâtiment militaire, le Grenier d’abondance abrite aujourd’hui la Direction régionale des affaires culturelles de Rhône-Alpes."
Eglise Notre-Dame Saint-Vincent,59 quai Saint Vincent,69001,Lyon 1er,,45.767405,4.829265,,,,"Bus C3 : La Feuillée - Bus 19, 40, 44 : Saint-Vincent",XVIIIe ,"Ancien couvent des Augustins, il marque une rupture avec le style baroque et le retour du néoclassique. Importante exposition de vêtements liturgiques anciens."
Association La Gonette,4 rue Imbert Colomès,69001,Lyon 1er,,45.771283,4.832055,,,,"Bus S6 : Pouteau, Métro C : station Croix-Rousse - descendre la rue des Pierres Plantées.",,"A la Croix-Rousse depuis mars 2015, l’association la Gonette lance la monnaie locale complémentaire lyonnaise du même nom."
Atelier de Luthier Charlemagne,4 rue Terraille,69001,Lyon 1er,,45.768670,4.835004,,,,Métro : Hôtel de ville.,,"Atelier où sont réglés, réparés et restaurés violons, altos, violoncelles et contrebasses. "
Galerie Atelier 28,28 rue Burdeau,69001,Lyon 1er,,45.770316,4.832490,,,,Métro A : Hôtel de Ville - Métro C : Croix-Paquet – Bus S6,,Artistes confirmés de la seconde moitié du XXe siècle et jeunes talents appelés à faire l'actualité.
Les Musidanses,99 montée de la grande côte,69001,Lyon 1er,,0.000000,0.000000,,,,"Métro A : Hôtel de ville – Métro C : Hôtel de ville ou Croix Paquet. Bus : C3, C13, C14, C18, S6, S12, 19 : Terreaux",,Ecole associative de musique créée en 2001 et dirigée par Susana Nasanovsky Lanier.
Galerie Le Réverbère,38 rue Burdeau,69001,Lyon 1er,,45.770532,4.834429,,,,Métro A : station Hôtel de Ville - Métro C : station Croix-Paquet ou Hôtel de Ville,,Galerie de photographie contemporaine.
Fresque des Lyonnais,2 rue de la Martinière,69001,Lyon 1er,,45.768108,4.828041,,,,"Bus C3 : La Feuillée - Bus 19, 40, 44 : Saint-Vincent",,La fresque représente 24 personnages historiques lyonnais et 6 personnages contemporains.
Carré 30,12 rue Pizay,69001,Lyon 1er,,45.766744,4.835231,04 78 39 74 61,carre30lyon@free.fr,http://lecarre30lyon.blogspot.com,"Bus C3, 13, 18, Métro A : Hôtel de Ville-Louis Pradel",,Lieu associatif mélangeant spectacle culturel et poésie.
Coopérative du Zèbre,22 rue Jean Baptiste Say,69001,Lyon 1er,,45.773073,4.831369,,,,Bus C13 : Croix-Rousse,,"Lieu associatif mêlant la passion pour la cuisine, le sens du partage et l’implication sociale et culturelle de l’équipe."
Centre de danse Acquaviva,14 rue Pizay,69001,Lyon 1er,,45.766898,4.835286,04 78 28 92 71,sjc.acquaviva@wanadoo.fr,http://photogala.fr,Métro A : Hôtel de Ville - Métro C : Croix-Paquet,,
Atelier de dorure ARBORE,100 montée de la Grande Côte,69001,Lyon 1er,,45.769669,4.829912,,,,"Bus 6, 13, 18 : Mairie du 1er",,
Espace 44,44 rue Burdeau,69001,Lyon 1er,,45.770440,4.834984,,,,Bus S6 : Tables Claudiennes - S12 : Imbert-Colomès,,"Théâtre de 40 places qui fait partie du réseau ""Scène Découvertes""."
Théâtre des Clochards Célestes,51 rue des Tables Claudiennes,69001,Lyon 1er,,45.771060,4.834012,04 78 28 34 43,billetterie@clochardscelestes.com,http://www.clochardscelestes.com,"Bus S6 : Pouteau, Métro C : station Croix-Rousse",,Théâtre intimiste et convivial d’une cinquantaine de places offrant une programmation pour les adultes et les enfants.
Place Sathonay,0,69001,Lyon 1er,,45.769263,4.830150,,,,"Bus 6, 13, 18 : Mairie du 1er",,
Halte fluviale,Quai de la Pêcherie,69001,Lyon 1er,,45.766799,4.830053,,,,Bus 31-40 : La Feuillée,,
,Place Louis Pradel,69001,Lyon 1er,,45.767967,4.835956,,,,,,
Eglise Saint Nizier,1 place Saint-Nizier,69002,Lyon 2ème,,45.764596,4.832996,,,,"Métro A : Cordeliers - Bus 18, 91:   Cordeliers-Bourse",XIVe-XVIe,Edifice religieux de style gothique flamboyant repérable par l’asymétrie de ses deux flèches et classé Monument historique.
Théâtre des Célestins,4 rue Charles-Dullin,69002,Lyon 2ème,,45.759905,4.831579,,,,Métro A : station Bellecour,XIXe ,"Ce théâtre à l'italienne conserve toute la majesté de son architecture d'origine. Rénové en 2004, il conjugue désormais tradition et haute technicité."
Brasserie Georges,30 cours de Verdun,69002,Lyon 2ème,,45.748549,4.828341,,,,"Métro A, Tram T1-T2 : Perrache",XIXe ,"Brasserie depuis 1836, date de sa création par un alsacien. Vitraux de Lucien Bégule à l’entrée."
Mairie du 2ème arrondissement,2 rue d'Enghien,69002,Lyon 2ème,,45.753198,4.827086,04 78 92 73 00,,http://www.mairie2.lyon.fr,Métro A : Ampère-Victor-Hugo,XIXe ,"Edifice construit en 1875 par Clair Tisseur pour le compte de la Compagnie des forges de Terrenoire, devenu Mairie en 1891."
Eglise Saint François de Sales,11 rue Auguste Comte,69002,Lyon 2ème,,45.755203,4.831372,,,,"Métro A -D : station Bellecour - Bus C5, C9, C12, C20, 27, 40, S1 : Bellecour - Le Viste - Bus C10, S1, 15, 35, 88 : Bellecour Charité - Bus C5, C9, C12, 14 : Bellecour - Antonin-Poncet",XIXe ,"Église néoclassique-néo baroque par agrandissement de l'ancienne chapelle baroque Sainte-Madeleine (XVII-XVIIIe siècles), entièrement repeinte et décorée par des artistes renommés."
Musée des Tissus et des Arts décoratifs,34 rue de la Charité,69002,Lyon 2ème,,45.753101,4.831699,04 78 38 42 00,musees@lyon.cci.fr,http://www.musee-des-tissus.com,"Métro A, Navette presqu'Île : station Ampère-Victor-Hugo ou Bellecour",XIXe ,"Le musée des Tissus retrace plus de 4500 ans d'histoire du textile et des civilisations. Le musée des Arts décoratifs évoque le décor intérieur d'un hôtel particulier au travers de ""Period Rooms""."
Basilique Saint Martin d'Ainay,Place d'Ainay,69002,Lyon 2ème,,45.753324,4.827227,,,,"Métro A, bus 91 : Ampère-Victor-Hugo",XIe-XIIe,"Abbaye dont il reste le très original clocher porche (XIe siècle), l’église romane principale (XIIe siècle) et une chapelle plus ancienne du XIe siècle (Sainte-Blandine), remaniées au XIXe siècle."
Musée de l'Imprimerie et de la communication graphique,13 rue de la Poulaillerie,69002,Lyon 2ème,,45.764177,4.834744,04 78 37 65 98,mil@mairie-lyon.fr,http://www.imprimerie.lyon.fr,Métro A : Cordeliers - Bus 18 : Cordeliers-Bourse,XVe ,"Après 50 ans d’existence, le Musée de l’imprimerie de Lyon est devenu le Musée de l’imprimerie et de la communication graphique. Muséographie etscénographie rénovées."
Sanctuaire Saint-Bonaventure,Place des Cordeliers,69002,Lyon 2ème,,45.763484,4.837119,,,,"Métro A, Bus C3, C5, C13, C14, C23, 9, 27, 171 : Cordeliers",XVe ,"Église majeure du centre de Lyon à la décoration riche, dotée d’un orgue exceptionnel et inscrite Monument historique."
Chapelle de la Trinité,29-31 rue de la Bourse,69002,Lyon 2ème,,45.765625,4.836865,04 78 38 09 09,info@lachapelle-lyon.org,http://www.lachapelle-lyon.org,"Métro A, bus C3, C18 : Cordeliers ou Hôtel de Ville",XVIIe ,"Chapelle jésuite édifiée entre 1617 et 1622 dans un style baroque, classée Monument historique."
Hôtel Dieu,1 place de l'Hôpital,69002,Lyon 2ème,,45.759239,4.836005,,,,"Métro A-D : station Bellecour - Bus C12, C5, C9, C20, 27, 40, S1 : Bellecour le Viste - Bus C10, S1, 15, 35, 88 : Bellecour Charité",XVIIe ,"La Chapelle de l’Hôtel-Dieu, à l’architecture issue de la Contre-Réforme adaptée à l’hôpital, est entièrement décorée en trompe-l’œil néo-baroque. Sa restauration a débuté en 2012."
Maison Rhodanienne de l'Environnement,32 rue Sainte-Hélène,69002,Lyon 2ème,,45.754020,4.831903,04 72 77 19 80,conferences@mre69.org,http://www.maison-environnement.info,Métro A : station Bellecour ou Ampère Victor Hugo – Bus S1 : Sainte-Hélène,XVIIIe ,"Lieu ressource ouvert à tous dans les domaines de l'écologie, du développement durable et de la citoyenneté, regroupant 33 associations de protection de la nature et du cadre de vie."
Archives municipales de Lyon,1 place des Archives,69002,Lyon 2ème,,45.747657,4.824876,04 78 92 32 50,aml@mairie-lyon.fr,http://www.archives-lyon.fr,"Métro A, Tram T2 : Perrache - Tram T1 : Suchet",XXe-XXIe,Ancien centre de tri postal de Lyon-gare réalisé par l’architecte Jean Clapot en 1905.
Pont Raymond Barre,0,69002,Lyon 2ème,,45.733519,4.819051,,,,Tram T1 : Musée des Confluences,XXIe,"Pont réservé aux modes doux, tramways, piétons, cyclistes. Avec deux immenses arches, l’espace central offre un panorama unique."
Pavillon Rives de Saône,Angle quai Saint-Antoine - Pont Maréchal Juin,69002,Lyon 2ème,,45.762931,4.831796,,,,,XXIe ,Lieu d’information et de médiation autour du projet Rives de Saône et première œuvre d’art installée sur le parcours des Rives de Saône ; conçu par l’artiste Didier Faustino et ouvert au public depuis juin 2012.
Hôtel de Région,1 esplanade François Mitterrand,69002,Lyon 2ème,,45.740446,4.819168,,,,"Tram T1, Bus 8, 63, 91 : Hôtel de Région / Montrochet",XXIe ,"Le siège de la Région Rhône-Alpes, installé depuis 2011 au cœur du quartier de la Confluence à Lyon, a été conçu par l'architecte Christian de Portzamparc."
69 rue de la République,0,69002,Lyon 2ème,,45.759258,4.835002,,,,"Métro A ou D : station Bellecour - Bus 15, 35, 88, C10 :   Bellecour Charité - Bus 14, 488, PL2, PL4 :   Bellecour - A. Poncet - Bus 27, 40, C12, C20, C5, C9, N40, S1 :   Bellecour Le Viste",,"Bâtiment situé dans le secteur classé de l'Hôtel Dieu, orné de murs peints conçus et réalisés par CitéCréation, fruit d'un travail commun avec les équipes d'ACIES Consulting Group."
Magasin PRINTEMPS,42 place de la République,69002,Lyon 2ème,,45.761073,4.836192,,,,Métro A : Cordeliers  Métro A – D : Bellecour,,"Pour ses 150 ans, le grand magasin ouvre ses coulisses et raconte les temps forts de son histoire"
Théâtre des Marronniers,7 rue des Marronniers,69002,Lyon 2ème,,45.757068,4.834844,04 78 37 98 17,infos@theatre-des-marronniers.com,http://www.theatre-des-marronniers.com,"Métro A -D : station Bellecour - Bus C5, C9, C12, C20, 27, 40, S1 : Bellecour - Le Viste - Bus C10, S1, 15, 35, 88 : Bellecour Charité - Bus C5, C9, C12, 14 : Bellecour - Antonin-Poncet",,"Théâtre intime de 50 places créé en 1985. Scène Découvertes, théâtre d'auteur et d'acteur."
Goethe Institut,18 rue François Dauphin,69002,Lyon 2ème,,45.755366,4.832662,04 72 77 08 88,info@lyon.goethe.org,http://www.goethe.de/ins/fr/lyo/frindex.htm,"Métro A -D : station Bellecour - Bus C5, C9, C12, C20, 27, 40, S1 : Bellecour - Le Viste - Bus C10, S1, 15, 35, 88 : Bellecour Charité - Bus C5, C9, C12, 14 : Bellecour - Antonin-Poncet",,"Ancien théâtre, jeu de paume et ancienne imprimerie du Progrès, aujourd’hui transformé en Goethe-Loft, lieu de présentation de nombreuses manifestations du Goethe-Institut Lyon et de ses partenaires européens."
Musée des Confluences,86 quai Perrache,69002,Lyon 2ème,,45.733775,4.818794,,,,"Tram T1 : Montrochet - Bus C7, 10, 15, 88 : Pont Pasteur rive droite - Navette Presqu’Île 91 : Charlemagne - Casimir-Périer",,"Au cœur d’une structure monumentale faite de métal et de verre, cet établissement propose un voyage à travers le temps et les continents afin d’observer le monde qui nous entoure."
Institut culturel italien,45 rue de la Bourse,69002,Lyon 2ème,,45.764313,4.836856,,,,"Métro A, bus C3, C5, C13, C14, C23, 9, 27, 171 : Cordeliers",,Institut chargé de promouvoir la culture et la langue italiennes.
Office du tourisme,Place Bellecour,69002,Lyon 2ème,,45.756573,4.832784,,,,Métro A-D : Bellecour,,
Maison de la Confluence,73 rue Smith,69002,Lyon 2ème,,45.742169,4.821938,,,,Tram T1 : Montrochet,,
,Place Saint-Nizier,69002,Lyon 2ème,,45.764647,4.832953,,,,"Métro A, Bus C3, C14, 19, 27, 31, 40, S1: Cordeliers ou Hôtel de ville",,
Embarcadère,Quai des Célestins,69002,Lyon 2ème,,45.760887,4.831170,,,,Bus 31-40 : Pont Bonaparte ,,
Embarcadère Place Antonin Poncet,Quai Gailleton,69002,Lyon 2ème,,45.755567,4.835607,,,,,,
L'Embarcadère,13bis quai Rambaud,69002,Lyon 2ème,,45.750586,4.822731,,,,Bus 8-63-185 : Claudius Collonge,,
,Place Bellecour,69002,Lyon 2ème,,45.757877,4.832005,,,,"Métro A -D : station Bellecour - Bus C5, C9, C12, C20, 27, 40, S1 : Bellecour - Le Viste - Bus C10, S1, 15, 35, 88 : Bellecour Charité - Bus C5, C9, C12, 14 : Bellecour - Antonin-Poncet",,
Mairie du 3ème arrondissement,215 rue Duguesclin,69003,Lyon 3ème,,45.760285,4.848936,04 78 95 83 50,,http://www.mairie3.lyon.fr,"Métro B : Station Guichard - Tram T1 : Moncey-Mairie du 3e- Bus C4, C9, C13, C14",XIXe,"Construit en 1891, le bâtiment possède une marquise et des luminaires d'origine au-dessus de l'entrée. À l'intérieur se trouve une galerie couverte ""à l'italienne"" et un sol paré de mosaïques."
Préfecture du Rhône,106 rue Pierre Corneille,69003,Lyon 3ème,,45.760856,4.844260,,,,"Tram T1 : Saxe Préfecture - Bus C4, C13, C14, C9 : Saxe-Préfecture - Métro B : station Place Guichard - Bourse du Travail",XIXe ,Edifice en pierre de taille construit par Antonin Louvier entre 1883 et 1890 et inscrit Monument historique.
Grand Temple - Eglise réformée,3 quai Victor Augagneur,69003,Lyon 3ème,,45.762074,4.841409,,,,"Tram T1 : Liberté - Bus C3, C14, 27 : Molière",XIXe ,Temple de l'Église Protestante Unie de France construit par l’architecte Gaspard André et classé Monument historique.
Théâtre des Asphodèles,17bis impasse Saint-Eusèbe,69003,Lyon 3ème,,45.757848,4.873302,04 72 61 12 55,compagnie@asphodeles.com,http://www.asphodeles.com,"Bus C9 : Ferrandière ou Maisons Neuves, C16 : Sacré Cœur, C11 : Maisons Neuves, C16 Paul Bert Baraban ou Paul Bert Turbil. Tram T3 : Dauphiné Lacassagne.",XXe,"Composé d’une salle de spectacle de 100 places et de 2 salles annexes, le Théâtre des Asphodèles se situe dans des anciens bureaux de tri postal entièrement réhabilités."
Bibliothèque Municipale de la Part-Dieu,30 boulevard Vivier Merle,69003,Lyon 3ème,,45.760250,4.857886,04 78 62 18 00,,http://www.bm-lyon.fr,"Gare de la Part Dieu, T1, T3, Métro ligne B : Part Dieu. Bus C7, C1, C2 : Vivier Merle",XXe ,"Bâtiment conçu par l’architecte Jacques Perrin-Fayolle en 1972, autour d’un silo de 17 étages permettant la conservation de plus de 2 millions de documents et l’accès à la Bibliothèque municipale de Lyon."
Caves Bahadourian,20 rue Villeroy,69003,Lyon 3ème,,45.756831,4.844588,,,,Métro D : Guillotière - Métro B : Saxe-Gambetta ou Place Guichard - Bus 4-18,XXe ,"Bazar à l'orientale où l'on trouve tous les produits de la Méditerranée, créé et tenu par le grand épicier Djebraïl Bahadourian (1907-1991)."
Auditorium Maurice Ravel,149 rue Garibaldi,69003,Lyon 3ème,,45.761214,4.851944,04 78 95 95 95,,http://www.onl.fr,"Métro B - Tram T1, T3 - Bus C3, 25, 28, 36, 37, 41, 47, 59, 70, 99 : Part-Dieu",XXe ,L’une des rares institutions françaises réunissant une salle de concerts de 2100 places et un orchestre permanent accueillant les 103 musiciens de l’Orchestre national de Lyon.
Eglise du Saint Sacrement,15 rue Étienne-Dolet,69003,Lyon 3ème,,45.757516,4.851890,,,,Métro B : station Place Guichard ou Saxe-Gambetta,XXe ,Œuvre de l’architecte de Fourvière Sainte Marie Perrin. Vitraux de Georges Decôte.
Mémorial Montluc,4 rue Jeanne Hachette,69003,Lyon 3ème,,45.750636,4.861708,,,,"Métro D : station Sans Souci - Bus 69, C6, C23, C25 : Manufacture des Tabacs - Tram T4 : Manufacture - Montluc",XXe ,"Prison militaire inscrite Monument historique, lieu de la répression nazi durant la Seconde Guerre mondiale."
Villa Berliet,39 avenue Esquirol,69003,Lyon 3ème,,45.742005,4.892039,,,,"Tram T2,  Bus 28 : Vinatier - Métro D : station Laënnec",XXe ,"Villa ""Art Nouveau"", demeure familiale de Marius Berliet construite en 1911 par Paul Bruyas et décorée de boiseries de Louis Majorelle et d’un remarquable ensemble de vitraux de Jacques Grüber."
Société d'enseignement professionnel du Rhône (SEPR),46 rue du Professeur Rochaix,69003,Lyon 3ème,,45.746548,4.877421,,,http://www.sepr.edu,"Métro D - Tramway T2 - Bus 24, C8, C13, C16, C22, C26, 25 : stations Grange Blanche, place Henri et place d’Arsonval",XXIe,"Société d’Enseignement Professionnel du Rhône, association créée en 1864 qui assure la formation des jeunes et des adultes. Campus implanté sur l'ancien site industriel RVI."
Café social L'Olivier des Sages,8 rue de l'Epée,69003,Lyon 3ème,,45.756620,4.843402,,,,"Métro, Tram T1 : Guillotière",XXIe,L'Association l'Olivier des Sages a pour but de lutter contre l'isolement des personnes âgées en proposant un lieu de socialisation - les K-fés sociaux - à Lyon et Villeurbanne.
Le 208 - AFAA architecture,208 rue Garibaldi,69003,Lyon 3ème,,45.758702,4.852186,,,,,XXIe ,"Livré en 2012, ""Le 208"" rue Garibaldi, conçu par AFAA architecture, est une construction de petite échelle conditionnée par une forme de terrain et un espace très contraint."
Maison du Projet - SPL Lyon Part-Dieu,192 rue Garibaldi,69003,Lyon 3ème,,45.760410,4.851841,,,,"Tram T1, Bus C7, C9, C13 : Part-Dieu-Servient - Métro B : Part-Dieu ou Place Guichard",,"La Société Publique Locale Lyon Part-Dieu (SPL), opérationnelle depuis  janvier 2015, est chargée de piloter le projet urbain Part-Dieu."
Le Tubà,Place Charles Béraudier,69003,Lyon 3ème,,45.760094,4.858485,,,,"Métro B, tram T1, bus C1 : Gare Part-Dieu Vivier-Merle. Tram T3, T4 : Gare Part-Dieu Villette",,Association d’acteurs privés et publics unissant leurs compétences pour repenser la ville de demain.
MJC Rancy,249 rue Vendôme,69003,Lyon 3ème,,45.755877,4.847531,,,,Métro B : station Place Guichard ou Saxe-Gambetta,,"La Maison Pour Tous des Rancy (MPT) est une association d'éducation populaire affiliée au réseau des Maisons des jeunes et de la culture, qui concrétise un projet de développement social et culturel dans le 3ème arrondissement."
Archives du Département du Rhône et de la Métropole de Lyon,34 rue Général Mouton-Duvernet,69003,Lyon 3ème,,45.756345,4.861555,,,,"Tram T4, Bus C 11 : Archives départementales",,"Le nouveau bâtiment des archives départementales du Rhône, conçu par l'architecte Bruno Dumetier et le cabinet Gautier-Conquet, constitue comme un écrin précieux habillé de cuivre pour conserver la mémoire du département du Rhône et de la métropole."
Fédération Compagnonnique des Métiers du Bâtiment,11 rue Charles-Richard,69003,Lyon 3ème,,45.752917,4.886350,,,,Tram T3 : Reconnaissance Balzac,,Siège des compagnons du Tour de France de Lyon.
Tour Incity,114-116 cours Lafayette,69003,Lyon 3ème,,45.763549,4.851108,,,,Bus C3 : Garibaldi-Lafayette,,"Une tour créatrice de valeur située au cœur du quartier d’affaires, Incity sera la 1ère tour HQE® (Haute Qualité Environnementale) de centre-ville en France. Conçue pour le bien-être de l’utilisateur, elle privilégie la lumière naturelle et offre 90% des bureaux éclairés en 1er jour. À l’horizon 2015, la tour Incity apportera une qualité de vie au travail et des services inégalés à Lyon, source d’une dynamique sociale forte."
Château de Sans souci - Maison des associations,36 avenue Lacassagne,69003,Lyon 3ème,,45.754078,4.867286,,,,"Métro D : Sans souci ; Tram T3 : Dauphine-Lacassagne, Bus C11 : Rouget de l'Isle",,
Espace Elsa Triolet,53 rue Charles Richard,69003,Lyon 3ème,,45.749608,4.888348,,,,"Tram T3 : Reconnaissance-Balzac, Bus C26 : Charles Richard",,
,Place Guichard,69003,Lyon 3ème,,45.759048,4.847304,,,,Métro B : Place Guichard,,
Halles de Lyon Paul Bocuse,102 cours Lafayette,69003,Lyon 3ème,,45.763408,4.850451,,,,,,
Hôpital Edouard Herriot,5 place d'Arsonval,69003,Lyon 3ème,,45.743254,4.879904,,,,"Métro D, Tram T2, Bus C8- C13-C16-C22-C24-C26 : Grange Blanche",,
Association soierie vivante,21 rue Richan,69004,Lyon 4ème,,45.780147,4.836844,,,,"Métro C : Croix-Rousse ou Hénon ; Bus C13 : Commandant Arnaud""",XIXe-XXe,L’association Soierie Vivante sauvegarde les deux ateliers de tissage - logis de canuts appartenant à la Ville de Lyon dans lesquels fonctionnent encore les métiers à tisser équipés de mécaniques Jacquard.
Ô vins d'anges,2 place Bertone,69004,Lyon 4ème,,45.777525,4.834551,,,,"Bus C13, S4 : Place Bertone",XIXe ,Cave à vin installée dans un ancien atelier de canuts.
Mairie du 4ème arrondissement,133 boulevard de la Croix-Rousse,69004,Lyon 4ème,,45.774480,4.827720,04 72 98 23 50,,http://www.mairie4.lyon.fr,"Métro C : Croix-Rousse - Bus 2, 13, 45 : Mairie du 4e",XIXe ,"Construite en 1867, la Mairie compte sur sa façade deux plaques évoquant la révolte des canuts de 1831 et 1834. A l’intérieur un métier à tisser mécanique Jacquard est exposé."
Maison des canuts,10 rue d'Ivry,69004,Lyon 4ème,,45.777176,4.833691,,,,"Métro C, bus C13, 33, 45, S6, S12 : Croix-Rousse - S4 : Maison des Canuts",XIXe ,La Maison des Canuts vous entraîne dans la grande aventure de la soierie lyonnaise.
Eglise Saint Denis,4 rue Hénon,69004,Lyon 4ème,,45.779497,4.831639,,,,Métro C : station Hénon - Bus 13 : Pailleron - Bus 33 : Croix-Rousse Hôpital,XVIIe ,Première église de la Croix Rousse (XVIIe) et paroisse des Canuts.
Théâtre de la Croix-Rousse,Place Joannes Ambre,69004,Lyon 4ème,,45.781011,4.832820,04 72 07 49 49,infos@croix-rousse.com,http://www.croix-rousse.com,"Métro C : station Croix-Rousse, Hénon et Cuire - Bus : C13, 38, S4, C1, 2, 33, 45, S6 / S12 : Croix-Rousse",XXe ,"Inaugurée en 1931 par Édouard Herriot, cette salle des fêtes des Canuts accueille en 1980 la Maison de la danse, pour enfin devenir le Théâtre de la Croix-Rousse en 1992."
Centre de maintenance du métro ligne C,75 boulevard des Canuts,69004,Lyon 4ème,,45.780705,4.827581,,,,Métro C : Hénon,XXe ,Les coulisses du réseau TCL.
Atelier Kolibri,7 rue Joséphin Soulary,69004,Lyon 4ème,,45.776443,4.835610,,,,"Métro C : Croix-Rousse - Bus 2, S6, C13, 33, 45 : Place de la Croix-Rousse ou Austerlitz.",,Les livres y sont reliés artisanalement selon des techniques traditionnelles ou contemporaines.
Tassinari et Chatel,7 rue Janin,69004,Lyon 4ème,,45.780174,4.833626,,,,Métro C : station Croix-Rousse,,"Atelier de 400 m2 de la plus ancienne manufacture de soierie lyonnaise, possédant 9 métiers à bras et de nombreuses archives de soierie."
Villa Gillet,25 rue Chazière,69004,Lyon 4ème,,45.775314,4.816607,,,,"Métro C : Croix-Rousse - Bus C13, C18 : Les Esses, bus S4 : Résidence Le Parc",,
Place de la Croix-Rousse,0,69004,Lyon 4ème,,45.774907,4.831724,,,,"Métro C, Bus 2-33-45-C13 : Croix-Rousse",,
Place du Gros Caillou,Boulevard de la Croix-Rousse,69004,Lyon 4ème,,45.774365,4.833713,,,,"Métro C, C13, Bus 2, 45 : Croix-Rousse",,
Musée gallo-romain et site archéologique de Lyon-Fourvière,17 rue Cléberg,69005,Lyon 5ème,,45.760598,4.820104,,,,Funiculaire Fourvière ou Funiculaire Saint-Just : station Minimes,Antiquité,"Musée labellisé Patrimoine du XXe siècle, installé sur le site gallo-romain de la Colonia Copia Claudia Augusta Lugdunum et inséré à proximité du théâtre et de l’odéon antiques."
Eglise Saint-Irénée et Calvaire de Lyon,Place Saint-Irénée,69005,Lyon 5ème,,45.755147,4.812840,,,,Funiculaire : Saint-Just - Bus 46 : Saint-Irénée,IXe-XIXe,La crypte de l'église date de l'époque carolingienne et l'église supérieure du XIXe siècle. Le calvaire monumental est le seul subsistant dans une grande ville.
Site archéologique de Saint-Laurent de Choulans,41 quai Fulchiron,69005,Lyon 5ème,,45.751964,4.821801,,,,"Bus 29, 30, 31 : Pont Kitchener Rive Droite",VIe-VIIe,"Abrité sous un immeuble moderne, dans une boucle autoroutière d'accès au tunnel, cet ensemble, qui remonte aux premiers temps chrétiens, présente les vestiges d’une pratique funéraire de cette époque (les fidèles étaient enterrés dans le sous-sol même des lieux de culte)."
Cathédrale Saint-Jean,Place Saint-Jean,69005,Lyon 5ème,,45.760732,4.826645,,,,"Métro D : Vieux-Lyon - Bus C20, 27, 31 : Vieux Lyon",XIIe-XVe,"Cathédrale de Lyon dont la construction a débuté au XIIe siècle. Edifice de style roman et gothique, classé Monument historique et qui abrite une horloge astronomique remarquable."
Trésor Cathédrale Saint-Jean,Place Saint-Jean,69005,Lyon 5ème,,45.760732,4.826645,,,,"Métro D : Vieux-Lyon - Bus C20, 27, 31 : Vieux Lyon",XIIe-XVe,"Cathédrale de Lyon dont la construction a débuté au XIIe siècle. Edifice de style roman et gothique, classé Monument historique et qui abrite une horloge astronomique remarquable. // Situé dans l'ancienne manécanterie, il présente aujourd'hui des ornements liturgiques du XIXe siècle, des tapisseries des Flandres et d'Aubusson ainsi que de l'orfèvrerie religieuse datant du XIIIe siècle jusqu'au Second Empire."
Eglise Saint Paul,3 place Gerson,69005,Lyon 5ème,,45.766808,4.826823,,,,"Bus C3, C14, S1, 19, 31, 40 - Gare SNCF Saint-Paul",XIIe ,"Une des plus anciennes églises de Lyon, de style roman et gothique, classée Monument historique."
"Académie des Sciences, Belles Lettres et Arts de Lyon - Palais Saint Jean",4 avenue Adolphe Max,69005,Lyon 5ème,,45.759990,4.827323,,,,"Métro D : station Vieux-Lyon - Bus C20, 27, 31 : Vieux Lyon",XIIIe-XIXe," Institution intellectuelle lyonnaise et société savante créée en 1700. Elle est installée dans une aile du Palais Saint-Jean, ancien archevêché."
Lycée Saint-Just,21 rue des Farges,69005,Lyon 5ème,,45.757106,4.821164,,,,Funiculaire Saint-Just : Minimes,XIXe , Ancien grand séminaire de Lyon. 
Chapelle de l'hôpital de Fourvière,10 rue Roger Radisson,69005,Lyon 5ème,,45.760355,4.818640,,,,Funiculaire F2 : Fourvière - Bus 90 : Jaricot,XIXe ,"Au coeur d'un parc de 5ha, chapelle hospitalière récemment rénovée."
Eglise Saint-Georges,Quai Fulchiron,69005,Lyon 5ème,,45.757583,4.825616,,,,"Métro D : station Vieux Lyon – Bus 31, C20, C20E : Saint-Georges, 27 : terminus Vieux Lyon",XIXe ,"Église de style néo-gothique, construite par l'architecte Pierre-Marie Bossan, sur l'emplacement de l'antique église de la Commanderie."
Basilique Notre-Dame de Fourvière,8 place de Fourvière,69005,Lyon 5ème,,45.762011,4.821965,,,,Funiculaire : Fourvière,XIXe ,"Œuvre de Pierre Bossan inaugurée en 1896, aux influences gothiques et byzantines, inscrite aux Monuments historiques."
Eglise Saint-Just,39 rue des Farges,69005,Lyon 5ème,,45.756483,4.820130,,,,Funiculaire : St-Just Minimes,XVIe-XVIIe ,Eglise baroque avec une belle façade du XVIIIe siècle de l'architecte Delamonce.
Maison de Pauline Jaricot,42 montée Saint-Barthélemy,69005,Lyon 5ème,,45.761781,4.824122,,,,Funiculaire Saint-Just : Minimes ; Depuis Fourvière par le jardin du Rosaire. Depuis Saint Jean par le Funiculaire de Fourvière et les jardins du Rosaire ou à pied par la montée des Chazeaux.,XVIe ,Belle bâtisse dans laquelle Pauline Jaricot vécut au XIXe siècle. Inscrite Monument historique.
Musées Gadagne,1 place du Petit Collège,69005,Lyon 5ème,,45.764005,4.827684,04 78 42 03 61,gadagne@mairie-lyon.fr,http://www.gadagne.musees.lyon.fr,Métro D : Vieux-Lyon - Bus C3 : Saint-Paul,XVIe-XXIe,"L’ensemble Gadagne, édifice datant de la Renaissance, accueille le musée d’histoire de Lyon et le musée des marionnettes du monde."
Chocolaterie Guillaume Daix,3 rue Louis Carrand,69005,Lyon 5ème,,45.765451,4.828441,,,,"Métro D : station Vieux-Lyon – Bus C3 : Saint-Paul, Bus 31 : Pont la Feuillée",XVIIe ,"Classé aux Bâtiments de France, local restauré en 2009 pour devenir une Fabrique artisanale de chocolaterie biologique."
Chapelle Sainte-Philomène aux Lazaristes,24 montée saint Barthélémy,69005,Lyon 5ème,,45.764130,4.825965,,,,"Bus C3: Gare Saint Paul, C14 : Saint Paul",XVIIIe ,Chapelle au cœur du lycée des Lazaristes.
Temple du Change,1 place du Change,69005,Lyon 5ème,,45.764612,4.828185,,,,"Métro D : station Vieux Lyon - Bus C3, 40, 31 et Navette Presqu’île : Gare St Paul",XVIIIe  ,"Loge du Change devenue temple en 1803, construite par Roche sur les plans de Soufflot."
Instituto Cervantes,58 montée de Choulans,69005,Lyon 5ème,,45.753513,4.819134,,,,"Bus C20, C19, C21, 46, 49, 55 : Choulans-Tourelles",XXe ,Villa construite en 1923 par l’architecte lyonnais M. Roux-Spitz pour le fils de l’industriel fondateur de la société Weitz. Dédié à l'enseignement de la langue espagnole et la diffusion de la culture espagnole et des pays hispanophones.
L'Antiquaille,63 montée du chemin neuf - 1 rue de l'Antiquaille,69005,Lyon 5ème,,45.758223,4.822028,,,,Funiculaire Saint Just : Minimes,,"Ancien hôpital reconverti en opération immobilière intégrant une grande mixité de programmes : résidence étudiante, logements, musée du Christianisme, restaurant gastronomique, bureaux et bientôt, hôtel de luxe."
Lutherie Cédric Bon,101 quai Pierre Scize,69005,Lyon 5ème,,45.767341,4.825555,,,,"Bus C3 : Gare Saint-Paul, C14 Saint-Vincent",,"Atelier de lutherie de guitares, fabrication sur mesure et restauration."
Espace Culturel du Christianisme à Lyon,49 montée Saint Barthélémy,69005,Lyon 5ème,,45.760388,4.823415,,,,Funiculaire Saint Just :  Minimes,,"Haut lieu de mémoire et d'histoire du christianisme situé sur le site de l'ancien hôpital de l'Antiquaille, du cachot de Saint Pothin et de la crypte des martyrs de 177."
Nouvel Institut Franco-Chinois de Lyon,2 rue Sœur-Bouvier,69005,Lyon 5ème,,45.754470,4.812409,,,,"Bus (depuis Perrache) 46 et 49 : Saint-Irénée, C21 : Saint-Alexandre. Bus (depuis place Bellecour) C20E : Saint-Irénée, C20 : Saint-Alexandre – Funiculaire F1 : Saint Just",,"Installée dans l’ancien fort militaire Saint-Irénée, l’unique université chinoise hors de Chine a été ouverte à Lyon en 1921 et découle de la politique d’ouverture de la Chine aux études occidentales au début du XIXe siècle. "
Ecole Nationale Supérieure des Arts et Techniques du Théâtre (ENSATT),4 rue Sœur Bouvier,69005,Lyon 5ème,,45.753151,4.811453,,,,"Bus (depuis Perrache) 46 et 49 : Saint-Irénée, C21 : Saint-Alexandre. Bus (depuis place Bellecour) C20E : Saint-Irénée, C20 : Saint-Alexandre – Funiculaire F1 : Saint Just",,L'Ecole Nationale Supérieure des Arts et Techniques du Théâtre est installée depuis 1997 dans le 5e arrondissement
Musée d'art religieux de Fourvière,8 place de Fourvière,69005,Lyon 5ème,,45.762329,4.821625,,,,Funiculaire : Fourvière,,Musée d’art religieux présentant des expositions temporaires et une partie du trésor de Fourvière.
Musée des Automates,100 rue Saint-Georges,69005,Lyon 5ème,,45.756205,4.824223,,,,"Métro D : station Vieux-Lyon - Bus C20, C20E, 31 : Saint-Georges",,Une collection de 250 automates exposées sous forme de scènes animées.
Renaissance du Vieux Lyon (RVL),50 rue Saint-Jean,69005,Lyon 5ème,,45.762168,4.827480,,,,Métro D : station Vieux-Lyon,,
Parc de la Visitation,23 rue Roger Radisson,69005,Lyon 5ème,,45.759529,4.815919,,,,"Bus 90 : Bastion ou Jarricot, C21, C20 : Trion – Funiculaire F2 : Fourvière",,
Place Benoit Crépu,0,69005,Lyon 5ème,,45.758255,4.826124,,,,Métro D : Vieux-Lyon,,
Mairie du 6ème arrondissement,58 rue de Sèze,69006,Lyon 6ème,,45.768414,4.849305,04 72 83 15 00,,http://www.mairie6.lyon.fr,Métro A : Foch ou Masséna,XIXe ,"La mairie est installée depuis 1913 dans l'externat de la Trinité, ancien collège des Jésuites, dont les bâtiments furent construits en 1865."
Eglise Saint Pothin,127 rue de Créqui,69006,Lyon 6ème,,45.766350,4.844840,,,,Métro A - Bus C4-27 : Foch,XIXe ,Eglise de style néo-classique inscrite Monument historique.
Hôtel du gouverneur,38 avenue du Maréchal-Foch,69006,Lyon 6ème,,45.771085,4.843387,,,,Métro A : Foch - Bus C4-6-27 : Duquesne-Foch,XIXe ,"Hôtel particulier du baron Joseph Vitta, banquier et marchand de soie piémontais, datant de 1858, acquis en 1913 par la Ville de Lyon pour y loger le Gouverneur militaire."
Eglise Saint-Nom-de-Jésus,91 rue Tête d'Or,69006,Lyon 6ème,,45.766654,4.852897,,,,"Bus 4, 27 : Edgar-Quinet - Metro A : Masséna",XIXe ,"Inaugurée en 1863 pour être le lieu de culte du couvent dominicain qui porte le même nom, elle devient église paroissiale en 1909."
Parc de la Tête d'Or,1 boulevard du 11 novembre 1918,69006,Lyon 6ème,,45.778299,4.853468,,,,"Bus C1, C4, C5, C6, 27, 38 : Parc Tête d’Or",XIXe  ,Grand parc urbain comprenant un jardin botanique et un jardin zoologique de 8 ha.
Gare des Brotteaux,13bis place Jules Ferry,69006,Lyon 6ème,,45.767144,4.859300,,,,Métro A : Masséna - Métro B : Brotteaux - Bus C6,XXe ,"La gare des Brotteaux est construite en 1908 et fonctionne jusqu’en 1983. À partir de 2002, la gare est rénovée et accueille des activités de commerces et services. Labellisée Patrimoine du XXe siècle."
Brasserie des Brotteaux,1 place Jules Ferry,69006,Lyon 6ème,,45.767843,4.858943,,,,Métro B : Brotteaux,XXe ,"Brasserie construite en 1913, de style Art nouveau avec décors intérieurs et céramique, labellisée Patrimoine du XXe siècle."
Cinéma Bellecombe,61 rue d'Inkermann,69006,Lyon 6ème,,45.765727,4.865969,,,,Métro A : Charpennes - Bus C3 : Sainte-Geneviève – Tram T1 ou T4 : Collège Bellecombe ou Thiers Lafayette,XXe ,"Cinéma associatif depuis 1935, salle de cinéma à l'ancienne."
Lycée du Parc,1 boulevard Anatole France,69006,Lyon 6ème,,45.771444,4.856836,,,,Tram C1 et C6 : Vitton-Belges - Métro A : Masséna - Métro B : Brotteaux,XXe ,"Construit de 1902 à 1913, le bâtiment allie rationalité, hygiène et sobriété tout en manifestant par son étendue et son architecture puissante le message de la IIIème république. Labellisé ""Patrimoine du XXe siècle""."
Jardin botanique du Parc de la Tête d'Or,Parc de la Tête d'Or Allée du Pré Fleuri,69006,Lyon 6ème,,45.775039,4.855894,04 72 69 47 78,,http://www.jardin-botanique-lyon.com,"Métro A : Masséna - Bus 41, 36 : Parc Tête-d’Or Duquesne",,Jardin botanique comprenant des serres et une orangerie anciennes.
Musée d'Art Contemporain,81 quai Charles De Gaulle,69006,Lyon 6ème,,45.783686,4.851905,04 72 69 17 17,info@mac-lyon.com,www.mac-lyon.com,Bus C1-C4-C5 : Musée d'Art Contemporain,,
TLM,227 cours Lafayette,69006,Lyon 6ème,,45.763844,4.861071,,,,Tram T1 et Bus C3 : Thiers – Lafayette - Métro B et Tram T3 : arrêt Gare Part Dieu,,
Bâtiment Jules Weitz - Station de radio Lyon 1ère,14 rue Crépe - 3e étage (pas d'ascenseur),69007,Lyon 7ème,,45.739470,4.833689,,,,Métro B : Jean-Jaurès,XIXe ,"Ancienne usine de construction de grues à l’architecture de la fin du XIXème siècle, qui abrite aujourd'hui la radio d'info continue Lyon 1ère."
Eglise Notre-Dame-Saint-Louis,1 rue de la Madeleine,69007,Lyon 7ème,,45.750674,4.848112,,,,"Métro B-D : Saxe-Gambetta - Bus 9, 23 : Saint-Louis",XIXe ,"Construite par l’architecte Crépet, avec de beaux vitraux de Louis Guy consacrés à la vie de Saint-Louis et à la Vierge. Bénitier du VIIIe siècle, orgue rénové."
Chapelle du Prado et Maison Père Chevrier,13 rue Père-Chevrier,69007,Lyon 7ème,,45.750038,4.842072,,,,"Tram T1 : Université - Métro : Jean-Macé - Bus C4, C12, C14, 35 : Université Jean-Jaurès",XIXe ,"Ancienne salle de bal, transformée en chapelle et centre d’accueil pour enfants pauvres en 1861 par le Père Chevrier et les habitants du quartier."
Musée Africain,150 cours Gambetta,69007,Lyon 7ème,,45.750200,4.857751,04 78 61 60 98,musaf@missions-africaines.org,http://www.musee-africain-lyon.org,"Métro D : Garibaldi - Bus 9, 23, 36 : Manufacture des Tabacs",XIXe ,Le Musée Africain abrite l’une des rares collections françaises exclusivement dédiées aux civilisations de l’Afrique de l’Ouest.
Parc Blandan,37 rue du Repos,69007,Lyon 7ème,,45.745785,4.850839,,,,Bus C7: Lamothe-Domer - Tram T4: Manufacture-Montluc - Métro D : Garibaldi,XVe-XIXe-XXIe ,"Situé au carrefour des 3e, 7e et 8e arrdts., l'ancienne caserne Sergent Blandan s'est transformée en parc urbain de 17 ha."
Etablissement scolaire Chevreul Lestonnac,2 boulevard des Tchécoslovaques,69007,Lyon 7ème,,45.749326,4.859313,,,,,XXe-XXIe,"Etablissement scolaire installé depuis 2005 dans une ancienne église, construite dans les années 50 par l’architecte lyonnais Joseph Bacconnier. Des vitraux en dalles de verre créés par des artistes lyonnais, M. et Mme Paulin-Besson."
Mairie du 7ème arrondissement,16 place Jean Macé,69007,Lyon 7ème,,45.745844,4.841676,04 72 73 68 00,,http://www.mairie7.lyon.fr,"Métro B - Tram T2 - Bus C4, C14, C12 : Jean Macé - Gare SNCF",XXe ,"Inaugurée en 1920, la mairie est caractéristique des bâtiments publics de la IIIe République. Ornements et décorations intérieures abondants dont des décors du peintre Pierre Combet-Descombes."
Parc de Gerland,Allée Pierre de Coubertin,69007,Lyon 7ème,,45.723109,4.828534,,,,"Métro B, Bus 96 : Gerland",XXe ,"Le parc de Gerland a ouvert ses portes en juillet 2000. D’une surface de 20 ha, il trouvera sa plénitude avec une surface de 80 ha qui englobera le palais des sports, la plaine des jeux, le stade et la piscine."
Centre d'Histoire de la Résistance et de la Déportation (CHRD),14 avenue Berthelot,69007,Lyon 7ème,,45.747096,4.835864,04 78 72 23 11,,http://www.chrd.lyon.fr,Tram T2 : Centre Berthelot - Métro B : Jean Macé - Métro A : Perrache,XXe ,"Lieu de mémoire inauguré en 1992 dans l’ancienne école de santé militaire à l’intérieur des bâtiments où le chef de la Gestapo de Lyon, Klaus Barbie, a sévi."
Stade de Gerland,353 avenue Jean Jaurès,69007,Lyon 7ème,,45.723791,4.832345,,,,Métro B : stade de Gerland,XXe ,"Œuvre de l'architecte lyonnais Tony Garnier, le stade est mis en chantier en 1913. La Grande Guerre provoque la suspension les travaux qui reprennent en 1919, avec l'aide de prisonniers de guerre allemands. L'enceinte est finalement opérationnelle en 1920."
Eglise grecque orthodoxe,45 rue Père-Chevrier,69007,Lyon 7ème,,45.747994,4.845529,,,,"Métro : Jean Macé ou Saxe-Gambetta - Bus 4, 11, 18, 53 : Université-Jean-Jaurès",XXe ,Église représentative de l'art byzantin.
Ecole Normale Supérieure de Lyon - Site Jacques Monod,46 allée d'Italie,69007,Lyon 7ème,,45.729816,4.827159,,,,"Tram T1, bus C22 : ENS Lyon",XXe ,Le site Jacques Monod de l’ENS Lyon est consacré aux sciences.
Centre hospitalier Saint Luc Saint Joseph,20 quai Claude Bernard,69007,Lyon 7ème,,45.749807,4.835276,04 78 61 86 50,,http://www.ch-stjoseph-stluc-lyon.fr,Tram T1 : Quai Claude-Bernard - Tram T2 : Centre Berthelot,XXIe ,"Hôpital situé au cœur de la ville, en bordure du Rhône, né de la fusion de deux hôpitaux."
La Réserve,Angle des rues Benjamin Delessert et Georges Gouy - Face aux Bains Douches,69007,Lyon 7ème,,45.728143,4.833984,,,,Métro B : Stade de Gerland,XXIe ,"Aménagement artistique et écologique d’un espace en friche à Lyon Gerland, depuis juin 2010."
Jardin de l'Îlot d'Amaranthes,Angle rue Sébastien Gryphe et rue Montesquieu,69007,Lyon 7ème,,45.751902,4.843747,,,,"Métro B : Saxe Gambetta - Bus C4, C12, C14 : Thibaudière - Tram T1 : Saint-André",XXIe ,Jardins partagés urbains et jardin artistique créé par E. Louisgrand. Espace géré par les habitants dont les actions sont portées par l'association Brin d'Guill'.
"Immeuble ""Passerelle""",9 rue Mathieu Varille,69007,Lyon 7ème,,45.732846,4.826664,,,,Tram T1 : ENS Lyon,XXIe ,"Premier immeuble lyonnais composé de containers maritimes recyclés, acquis par Habitat et Humanisme pour héberger des personnes en situation précaire. Cet habitat modulable a ouvert ses portes en avril 2015."
Mission Gerland,181-203 avenue Jean Jaurès,69007,Lyon 7ème,,45.736389,4.836686,,,,Tram T1 : Debourg. Bus C7 : Jean Jaurès,,La Mission coordonne l'ensemble du projet de développement de Gerland. Elle a pour objectif de faire découvrir le projet et les mutations à l'œuvre et est l'interlocuteur privilégié de tous les acteurs et habitants du quartier.
Halte fluviale,9 avenue Leclerc (pont Gallieni),69007,Lyon 7ème,,45.746408,4.832721,,,,"Tram T1 : quai Claude Bernard, tram T2 : Centre Berthelot",,
,Place Antonin Jutard,69007,Lyon 7ème,,45.756343,4.840694,,,,,,
Association RAIDinLyon,26 rue Pierre Robin,69007,Lyon 7ème,,45.747799,4.857596,06 16 69 63 20,raidinlyon@gmail.com,http://www.raidinlyon.fr,,,
Eglise Saint-André,19 rue de Marseille,69007,Lyon 7ème,,45.752546,4.841038,,,,Tram T2 : Arrêt Saint-André - Métro D : Guillotière,,
Musée Lumière - Institut Lumière,25 rue du Premier Film,69008,Lyon 8ème,,45.744912,4.870441,04 78 78 18 95,contact@institut-lumiere.org,http://www.institut-lumiere.org,Métro D : Monplaisir-Lumière,XIXe-XXe,"Le Musée Lumière permet de découvrir les différentes inventions des frères Lumière, leur cadre de vie, ainsi que de nombreux jouets optiques liés à l’invention du cinéma."
Hôpital Saint-Jean-de-Dieu,290 route de Vienne,69008,Lyon 8ème,,45.724661,4.854009,,,,Bus C12 : Hôpital Saint-Jean-de-Dieu,XVe-XIXe,"Situé au sud de Lyon, l'hôpital Saint Jean de Dieu s'est déployé au XIXe siècle autour d'un ancien château. Bâtiments et parc composent un ensemble exceptionnel aux multiples secrets."
Musée Urbain Tony Garnier,4 rue des Serpollières,69008,Lyon 8ème,,45.733564,4.863102,04 78 75 16 75,musee@mutg.org,http://www.museeurbaintonygarnier.com,"Tram T4 : Musée urbain Tony Garnier - Tram T2 : Bachut-mairie du 8e - Bus C16, C22, C25 : États-Unis-Tony Garnier",XXe ,Le Musée invite à découvrir l'architecture sociale des années 1930 via un parcours en plein-air de 25 murs peints ainsi qu'un appartement musée des années 1930.
Grande Mosquée de Lyon,146 boulevard Pinel,69008,Lyon 8ème,,45.736844,4.890813,,,,Tram T2 : Vinatier / Métro D : Laënnec,XXe ,"Mosquée inaugurée en 1994, d’une grande richesse architecturale à travers le minaret, le patio, la salle de prière."
Résidence Le Victoria,16 rue de la Solidarité,69008,Lyon 8ème,,45.741238,4.857463,,,,Tramway T4 et T2 : Jet d'eau Mendès France,XXIe,"""Le Victoria, un nouvel esprit de famille"". GrandLyon Habitat a créé son premier immeuble intergénérationnel : 30 familles, 20 jeunes, 10 personnes handicapées, 15 personnes âgées, qui adhèrent aux valeurs de la résidence, basées sur l'écoute, la solidarité, l'entraide."
Jardin Présanty,"En face de l'allée 102, avenue Paul Santy",69008,Lyon 8ème,,45.728916,4.873801,,,,Tram T4 : Etats-Unis Viviani,,Jardin collectif et pédagogique du Pré Santy.
Mission Entrée Est,"Place Marc Sangnier, avenue Mermoz",69008,Lyon 8ème,,45.732376,4.882497,,,,Métro : Mermoz- Pinel (sortie côté Lyon),,La Mission coordonne et informe sur le projet de développement urbain du quartier Mermoz et les mutations qui y sont à l'œuvre.
Église Saint Jacques des États-Unis,51 rue Jean Sarrazin,69008,Lyon 8ème,,45.731589,4.867004,,,,Tram T4 / Bus C16-C22-C25-448 : États-Unis Tony Garnier,,
Musée d'histoire de la médecine et de la pharmacie,8 avenue Rockefeller,69008,Lyon 8ème,,45.742446,4.880166,,,,"Métro D, Tram T2, Bus C8-C13-C16-C22-C26-24 : Grange-Blanche",,
,Place Ambroise Courtois,69008,Lyon 8ème,,45.744838,4.871207,,,,métro D : Monplaisir-Lumière,,
Eglise Saint-Pierre de Vaise,3 boulevard Saint-Exupéry,69009,Lyon 9ème,,45.772914,4.808326,,,,"Bus 19, 66, 45 : Saint-Pierre de Vaise",XIXe ,"Église de 1843 construite par Tony Desjardins, dont la façade possède un curieux zodiaque, et qui se distingue par un cycle de vitraux sur la vie de Saint Pierre, signé le maître verrier fidésien Jean Coquet."
Fort de Vaise,25-27 boulevard Saint-Exupéry,69009,Lyon 9ème,,45.772788,4.808321,,,,Bus 90 : les Carriers,XIXe ,Fort de la 1ère ceinture défensive de Lyon.
Musée Jean Butaud,59 rue de Saint-Cyr,69009,Lyon 9ème,,45.783917,4.808062,,,,Métro D : station Gare de Vaise - Bus 2-20-22 : La Voûte,XIXe ,"Musée présentant des outils, outillages et matériels de différents métiers du bâtiment depuis 1870."
Espace Balmont / CinéDuchère,308 avenue Andreï Sakharov,69009,Lyon 9ème,,45.788374,4.800570,,,,"Bus C6, C14 : Duchère Piscine – Bus 21, 89 : Duchère Balmont",XXe ,"Église construite par des élèves de Le Corbusier, désacralisée puis reconvertie en cinéma."
Eglise de l'Annonciation,20 rue Laporte – Place de Paris,69009,Lyon 9ème,,45.778490,4.804440,,,,"Métro D, Bus 31-2-45-44-36 : Gare de Vaise",XXe ,Église de style suisse alémanique construite avec les dommages de guerre et achevée en 1959.
France Télévisions,51 rue des docks,69009,Lyon 9ème,,45.789036,4.813651,,,,"Métro D : station Gare de Vaise, puis Bus 31, 43 : Jean Marcuit",XXIe ,"Entité de France 3 en charge de fabriquer, pour le satellite et les différentes box, des éditions d’information pendant les décrochages régionaux."
Tour panoramique,avenue du plateau,69009,Lyon 9ème,,45.784081,4.794684,,,,Bus C14 : Duchère - Château ; Bus C6 : Duchère Piscine,,
Eglise du Plateau,240 avenue du Plateau,69009,Lyon 9ème,,45.782727,4.793834,,,,Bus C14 arrêt Duchère – Avenue du Plateau,,
,Place Abbé Pierre,69009,Lyon 9ème,,45.786222,4.795147,,,,C14 : Duchère-Martinière,,
,Place Henri Barbusse,69009,Lyon 9ème,,45.798117,4.829937,,,,"Bus 31, 43 : Ile Barbe",,
Musée des sciences biologiques Docteur Mérieux,309 avenue Jean Colomb,69280,Marcy-l'Étoile,,45.783501,4.713990,,,,Bus 98 : Parc Lacroix-Laval,XXe-XXIe ,"Musée consacré à l'histoire de la vaccination, la famille Mérieux et l'évolution de la commune de Marcy-l’Étoile."
Domaine de Lacroix-Laval,1171 route de Sain-Bel,69280,Marcy-l'Étoile,,45.784850,4.716695,,,,Bus 98 : Parc Lacroix-Laval - Train : Charbonnières ou Halte gare Casino,,
Centre de maintenance de Rhônexpress,190 rue Antoine Becquerel,69330,Meyzieu,,45.767388,5.033034,,,,Tram T3 : arrêt Meyzieu Les Panettes,,"Découverte des coulisses de Rhônexpress, le Smart Link reliant Lyon à l'aéroport Lyon-Saint Exupéry."
Eglise Saint-Pierre,Place de l'Eglise,69250,Montanay,,45.881321,4.864032,,,,Bus 97 : La Poype,XVe ,Eglise remarquable par son clocher datant du Moyen-Âge et ses peintures murales du XVe siècle.
Maison du patrimoine,641 rue Centrale,69250,Montanay,,45.880833,4.862360,,,,Bus 97 : La Poype,,Salle d'exposition située à l'arrière de l'ancienne mairie.
Eglise Notre Dame de l'Assomption,Place Ampère,69250,Neuville-sur-Saône,,45.876507,4.838716,,,,Bus 40-43-70-84-97-184 : Neuville  ; SNCF : gare de Neuville Villevert,XVIIe ,Eglise construite à partir de 1677 et consacrée en 1681 par Mgr Camille. Intérieur rénové en 2013.
Parc d'Ombreval,0,69250,Neuville-sur-Saône,,45.877487,4.839788,,,,Bus 40-43-70-84-97-184 : Neuville ; SNCF : gare de Neuville Villevert,,
Tour de l'Echo,Chemin de l'Echo,69250,Neuville-sur-Saône,,45.882743,4.840319,,,,Bus 40-43-70 ; SNCF : gare de Neuville Villevert,,
Mairie - Château d'Ombreval,Place du 8 Mai 1945,69250,Neuville-sur-Saône,,45.877388,4.840253,,,,Bus 40-43-70-84-97-184 : Neuville  ; SNCF : gare de Neuville Villevert,,
Halte fluviale,Quai Pasteur,69250,Neuville-sur-Saône,,45.876785,4.838422,,,,Bus 40-43-70-84-97-184 : Neuville,,
MJC,15 Place du 8 Mai 1945,69250,Neuville-sur-Saône,,,,,,,Bus 40-43-70-84-97-184 : Neuville ; SNCF : gare de Neuville Villevert,,
La Sarra,7 rue de la Sarra,69600,Oullins,,45.712443,4.803944,,,,"Métro B : Gare d’Oullins - Bus C10, 63 : Oullins Ville - C7 : Oullins Mairie",XVIe ,"Gentilhommière avec tour, clocher et splendide parc."
Collège et lycée Saint Thomas d'Aquin,56 rue du Perron,69600,Oullins,,45.710632,4.809639,,,,"Bus 10, C7, 63 : arrêt Oullins-Mairie",XVIIIe-XIXe ,Ancienne résidence d'été des archevêques de Lyon. Chapelle construite par Bossan et décorée par Paul Borel.
Château de la Bussière,60 chemin du Buisset,69600,Oullins,,45.717007,4.802407,,,,"Bus lignes 11, 12, 14 : arrêt La Bussière - C10, 63, 78, 88 : arrêt Mairie d'Oullins",XXIe,"Bâtiment du XVIe siècle, il accueillera des logements intergénérationnels."
Médiathèque Memo,8 rue de la République,69600,Oullins,,45.716939,4.811155,04 26 04 11 71,,,"Bus C7, C10, 14, 63, 88 : Pont d'Oullins - Métro B : station Gare d'Oullins",XXIe,"Inaugurée en 2010, la médiathèque propose une collection de 87000 documents."
Ecole Jean-Jaurès - Cité Kaps,1 avenue Jean Jaurès,69600,Oullins,,45.713974,4.819411,,,,"Métro B : Gare d'Oullins - Bus 15, 88 :La Saulaie ou Gare d'Oullins - Bus 11, 12, 14, 17, 18, 78 : Gare d'Oullins",XXIe,"La  cité ""KAPS"" ( Kolocs à Projets Solidaires), résidence étudiante, propose de co-habiter autrement."
Petit Perron - Château des Gondi,89 rue Voltaire,69310,Pierre-Bénite,,45.700607,4.811353,,,,"Bus C7,  17 : Petit Perron - Bus 88 : Pavillon médical",XVIe ,Maison avec une façade à arcades de style toscan ouverte sur les jardins. 
Station d'épuration,Chemin du Barrage,69310,Pierre-Bénite,,45.694123,4.836737,,,,"Bus 15, 18 : Les Mûriers + 20 min de marche sur voies non sécurisées",XXe ,"Conçue comme un outil pédagogique au service de l'écologie, la station de traitement des eaux usées est dotée d’un parcours pédagogique qui permet de découvrir et comprendre le grand cycle de l’eau et les étapes du traitement des eaux usées avant leur rejet au milieu naturel. "
Maison du Peuple,4 place Jean Jaurès,69310,Pierre-Bénite,,45.704058,4.822962,04 78 86 62 90,,http://www.maisondupeuple.org,Bus : Pierre-Bénite centre,,
Tour Risler,82 chemin de la Tour Risler,69250,Poleymieux-au-Mont-d'Or,,45.862147,4.798448,,,,Bus 84 : Poleymieux Eglise,XIIe ,Ancienne tour de défense du château de Poleymieux.
Musée André Marie Ampère,300 rue Ampère,69250,Poleymieux-au-Mont-d'Or,,45.853886,4.799197,,,,Bus 84 : Ampère,XVIIIe ,"Maison de jeunesse du savant Ampère et musée de l'électricité, avec des expériences interactives. Label Maison des Illustres."
,Chemin de Planchamp,69250,Poleymieux-au-Mont-d'Or,,45.858388,4.800947,,,,Bus 84 : Poleymieux Eglise,,
Chapelle,Place Saint-Jean - Hameau de la Chapelle,69650,Quincieux,,45.908863,4.758690,,,,Bus 92 : Route de Chasselay,XIIe ,"Chapelle de style roman, auvent de bois, fenêtres en ogives, barres en encorbellement."
Fort militaire de Vancia,Chemin de Sathonay-Village,69140,Rillieux-la-Pape,,45.835121,4.909891,,,,Bus C5 : Vancia - Village,XIXe ,"Edifice militaire de 23 000 m², maillon de la ceinture de défense de Lyon construite après 1870."
Hôtel de Ville,165 rue Ampère,69140,Rillieux-la-Pape,,45.818451,4.897686,,,,"Bus C2 : Verchères, C5 : Collège Paul Emile Victor ou espace Baudelaire - puis 5 minutes de marche à pied",XIXe ,"L'Hôtel de Ville de Rillieux-la-Pape est installé, depuis 1977, dans un ancien château bâti au XIXe siècle, dit château Ranvier. Les aménagements d'extension et de rénovation, achevés en 1999, allient ancien et moderne. Il abrite aujourd'hui le mécanisme de l'ancienne horloge de l'église Saint-Denis."
Espace Baudelaire,83 avenue de l'Europe,69140,Rillieux-la-Pape,,45.814654,4.895961,04 37 85 01 50,,,Bus C2-C5 : Espace Baudelaire,XXe ,"L’espace Baudelaire a été construit en 1986, au cœur de la ville nouvelle et à proximité des collèges et lycées. Son architecture de verre et d’acier privilégie la lumière, la transparence et l’ouverture."
Gymnase Hacine Chérifi et Groupe scolaire Paul Chevallier,19 rue Fleury Salignat,69140,Rillieux-la-Pape,,45.823293,4.895741,,,,Bus 33 : Paul Chevallier,XXIe ,"Le Gymnase Hacine Chérifi est inauguré en janvier 2015. Ces murs et sa charpente sont en ossature bois et l’isolation en bottes de paille. La construction est partiellement enterrée pour s’intégrer au site. Le projet du Groupe scolaire, inauguré en octobre 2012, a été pensé pour respecter l’environnement. Ces bâtiments ont reçu plusieurs prix d'architecture. 
"
Centre chorégraphique national de Rillieux-la-Pape,30 ter avenue du général Leclerc,69140,Rillieux-la-Pape,,45.814067,4.902734,,,,Bus C5 : Leclerc,,"Situé en plein cœur de la Velette, quartier de la ville nouvelle, il profite d’une vue panoramique sur la vallée de l’agglomération lyonnaise."
Eglise Saint-Denis,10 rue Général Brosset,69140,Rillieux-la-Pape,,45.819673,4.896216,,,,"Bus C2, Zi4 : Georges Sand / Bus 33 : Rillieux Salignat",,
Musée de l'Automobile Henri Malartre,645 rue du Musée,69270,Rochetaillée-sur-Saône,,45.845423,4.837940,04 78 22 18 80,musee-malartre@mairie-lyon.fr,http://www.musee-malartre.com,Bus 40 et 70 : Rochetaillée-Centre - Autoroute A 46 sortie Genay - Neuville,XIXe ,"Triple collection d'autos, de motos et de cycles présentée depuis 1960 dans la propriété du château de Rochetaillée dominant le val de Saône. La collection est labellisée Musée de France."
Vieilles Tours,Rue des Écoles,69450,Saint-Cyr-au-Mont-d'Or,,45.814773,4.817741,,,,Bus 20-S7 : Saint-Cyr,XIIe ,Ancienne église du château féodal transformée en salle municipale à la fin du XIXe siècle et actuellement utilisée comme salle de spectacle.
Ermitage du Mont Cindre,Route du Mont Cindre,69450,Saint-Cyr-au-Mont-d'Or,,45.822555,4.820760,,,,Bus 20 : Mont Cindre,XIVe ,"Situé sur son promontoire du Mont Cindre, l'Ermitage offre un panorama d'exception sur Lyon et ses alentours. La chapelle du XIVe siècle est entourée de deux jardins."
Eglise Sainte-Juliette,Place du Chanoine Chatard,69450,Saint-Cyr-au-Mont-d'Or,,45.814818,4.819994,,,,Bus 20-S7 : Saint-Cyr,XIXe ,"Église néogothique avec un clocher en pierre de deux tons. Vitraux classés, réalisés en 1870 par le maître verrier Lavergne."
Ecole Nationale Supérieure de Police,9 rue Carnot,69450,Saint-Cyr-au-Mont-d'Or,,45.814686,4.813545,04 72 53 18 50,,,Bus 20-S7 : Saint-Cyr,XVIIIe-XIXe-XXe-XXIe ,"Au coeur d'un parc de 5 hectares, l'Ecole Nationale Supérieure de la Police assure la formation initiale et continue des commissaires, officiers de police et cadres de la sécurité publique et privée. Ses bâtiments sont d'époques diverses (du XVIIIème siècle à 2008). "
Clos de la Rosette,1440 Route du Mont-Thou,69450,Saint-Cyr-au-Mont-d'Or,,45.833599,4.807434,,,,Bus 20-S7 : Saint-Cyr,,"Patrimoine typique des Monts-d'Or, les cabornes sont des constructions en pierres sèches qui servaient d'abris aux outils, aux animaux et parfois aux hommes. Certaines dates du XVIe siècle. Actuellement restaurées par des associations."
Chapelle de Saint Fortunat,Rue Victor Hugo - Hameau de Saint Fortunat,69370,Saint-Didier-au-Mont-d'Or,,45.824787,4.795803,,,,Bus 6 : Séquoia,XIVe ,"Chapelle classée XIVe siècle, remarquable par son chœur en ogive, ses pierres tombales, elle est au centre d'un gros hameau d'époque Renaissance que les carriers ont marqué de leur empreinte."
Maison des Carriers,46 Rue Victor Hugo,69370,Saint-Didier-au-Mont-d'Or,,45.825669,4.795234,,,,Bus 22 : Fortunat,,
Musée de la tour du télégraphe Chappe,Rue Sainte-Marguerite,69110,Sainte-Foy-lès-Lyon,,45.735612,4.802129,,,,"Bus C19, 17 : Sainte-Foy-Centre",XIXe  ,Premier télégraphe ancien optique reconstitué à l'identique de sa construction en 1821.
Domaine Lyon Saint Joseph,38 allée Jean-Paul II,69110,Sainte-Foy-lès-Lyon,,45.740769,4.780889,,,,"Bus C20, C20 E : La Plaine",XXe ,"Edifice construit entre 1926 et 1928 pour compléter les capacités d’accueil du Séminaire diocésain de Lyon. Transformé récemment en hôtel, de construction innovante entièrement en béton jusqu'à la charpente et de forme architecturale rappelant la tradition monastique."
Eglise Saint-Luc,4 bis place Saint Luc,69110,Sainte-Foy-lès-Lyon,,45.749424,4.800780,,,,Bus C20 : Charcot,XXe ,"Eglise construite dans les années 1960, achevée en 1968."
MJC - Espace Marcel Achard,112 avenue Foch,69110,Sainte-Foy-lès-Lyon,,45.742955,4.799244,04 78 59 66 71,,,"Bus 49, 90 : Chavril",XXIe ,
Maison de l'aqueduc,69 route de la Libération,69110,Sainte-Foy-lès-Lyon,,45.727315,4.778541,,,,"Bus 11, 12, 14, C19 : Sainte-Foy Mairie",,"Point d'informations, de documentations, d'expositions sur l'aqueduc du Gier, lieu de rencontre, d'échanges professionnels et amateurs."
Parc du Brûlet,rue du Brûlet,69110,Sainte-Foy-lès-Lyon,,45.744512,4.805388,,,,Bus 49 : arrêt Chavril - Brûlet,,Parc de 1.8 ha comportant des vestiges de l’aqueduc romain et des champs de mûriers.
Maison des anciens combattants,94 boulevard Baron du Marais,69110,Sainte-Foy-lès-Lyon,,45.734142,4.803695,,,,Bus C19 : Monument aux Morts,,
Jardin familial,210 chemin de Montray,69110,Sainte-Foy-lès-Lyon,,45.727754,4.781921,,,,"Bus C 19, puis rue Sainte Barbe",,L'association des jardins familiaux de Sainte-Foy œuvre pour un jardinage respectueux de l'environnement.
Jardin familial,117 chemin du Fort,69110,Sainte-Foy-lès-Lyon,,45.742696,4.800297,,,,Bus C19 : Entrée face à la CRS 46,,L'association des jardins familiaux de Sainte-Foy œuvre pour un jardinage respectueux de l'environnement.
Jardin familial,1 chemin du Vallon,69110,Sainte-Foy-lès-Lyon,,45.744343,4.796762,,,,Bus 49 : Chavril,,L'association des jardins familiaux de Sainte-Foy œuvre pour un jardinage respectueux de l'environnement.
Fort de Sainte-Foy-lès-Lyon,Impasse du Fort,69110,Sainte-Foy-lès-Lyon,,45.742877,4.803565,,,,,,
Ecole des mines,158 cours Fauriel,42000,Saint-Étienne,Saint-Étienne,45.422755,4.408854,04 77 42 01 23,,http://www.mines-stetienne.fr,,,
Gare de Saint-Fons,Avenue Diderot,69190,Saint-Fons,,45.705817,4.852773,,,,"TER : depuis Jean Macé (départ 10h53), retour depuis la gare de Saint-Fons (départ 17h31)",,
Le Lavoir de la Platte,Allée de la Platte,69230,Saint-Genis-Laval,,45.694520,4.788773,,,,"Bus 10, 88 : Saint-Genis - Centre",XIXe ,Ancien bassin d'irrigation du domaine de Beauregard aménagé en lavoir public.
Pavillon Pignet,116 avenue Georges Clémenceau,69230,Saint-Genis-Laval,,45.697525,4.794513,,,,"Bus C10, 88 : Saint-Genis-Mairie",XIXe ,"Dépendance de la maison d'Auguste Pignet, propriétaire de la manufacture des papiers peints. A l'intérieur, se trouve un papier peint panoramique de Pignet ""Le chemin de fer de Saint-Etienne à Lyon"" (1840). "
Observatoire de Lyon,9 avenue Charles André,69230,Saint-Genis-Laval,,45.695441,4.782553,,,,"Bus 10, 88 : Saint-Genis Centre -  Bus 78 : Observatoire",XIXe ,"Fondé en 1878, l’Observatoire de Lyon, laboratoire de recherche en astrophysique, est l’un des 9 observatoires français. Doté de 21 bâtiments et de plus de 40 instruments classés ou inscrits au titre des Monuments historiques, il se situe au cœur d’un parc de quatre hectares, riche de 500 arbres et arbustes. "
Chapelle de Notre Dame de Beaunant,178 chemin de Beaunant,69230,Saint-Genis-Laval,,45.716830,4.777869,,,,Gare TER : Chaponost,XIXe ,"Lieu de pèlerinage de style néo-byzantin, la chapelle fut élevée en 1857, près des ruines de la première chapelle construite au XIIIe siècle."
Villa Chapuis,45 avenue Georges Clemenceau,69230,Saint-Genis-Laval,,45.698492,4.794846,,,,"Bus C10, 88 : Saint-Genis-Laval - Mairie",XIXe  ,"Témoin de l'art décoratif de la fin du XIXe siècle, la Villa Chapuis présente des similitudes avec la Villa Lumière et elle est conçue par le même architecte, Charles Alex."
Parc de Beauregard,145 avenue de Gadagne,69230,Saint-Genis-Laval,,45.690470,4.784732,,,,"Bus C10, 88 : Saint-Genis Centre",XVIe ,"Parc, vestiges du château et vignes de Beauregard. Ouverture du Nymphée."
Eglise,5 place Chanoine Coupat,69230,Saint-Genis-Laval,,45.695089,4.794730,,,,Bus 10 : Saint-Genis - Centre,,"Reconstruite en 1781 sur l’emplacement de l’ancienne église, elle a été l’objet de différents agrandissements et aménagements à partir de 1844. A l'intérieur, statues, boiseries, autel, peintures et vitraux d'intérêt patrimonial."
Le parc de la maison des champs,130 avenue Clémenceau,69230,Saint-Genis-Laval,,45.696400,4.793808,,,,Bus C10,,
Fort de Côte Lorette,Rue de la Croix-Rouge,69230,Saint-Genis-Laval,,45.698492,4.783988,,,,Bus 17-101: Observatoire,,
Domaine des Grandes Trêves,82 avenue Marcel Mérieux,69290,Saint-Genis-les-Ollières,,45.760136,4.714900,04 78 92 94 47,,,Bus 72 : Grandes Trêves,XIVe ,"Mentionnée depuis le XVème siècle sur des capitulaires comme propriété des Chanoines de Saint-Just, cette bâtisse devint à la Renaissance le centre d’un important territoire de chasse."
Tour médiévale,Place de l'Église,69650,Saint-Germain-au-Mont-d'Or,,45.880974,4.805296,,,,"Bus 61, 92, 96 - TER Gare Saint-Germain-au-Mont-d'Or",XIIe  ,Château classé Monument historique offrant une belle vue sur le Val de Saône.
Les choux lents,19 avenue de la Résistance,69650,Saint-Germain-au-Mont-d'Or,,45.879810,4.803856,,,,"Bus 70 (Cordelier/PartDieu) jusqu'à Neuville (environ 1h de trajet) puis marche/stop/vélo/train depuis Albigny Neuville (à 5 km de Saint Germain) – SNCF Part Dieu, Vaise et Perrache compter 15/20mn et 15 minute de marche jusqu'aux Choux Lents",XIXe ,"Les bâtiments en pierre et pisé datent de 1850. Les Choux Lents sont composés d’appartements individuels et d’espaces communs. Collectif autour de l'écologie, la communication bienveillante, l'auto-rénovation, les règles de vie au quotidien ou le montage juridique et financier non spéculatif."
Fort de Saint-Priest,Rue du Grisard,69800,Saint-Priest,,45.697173,4.963031,,,,Tram T2 : Saint-Priest Bel-Air ; Bus C25 : Centre sportif,XIXe ,"Edifice militaire construit entre 1886 et 1895 faisant parti de la ceinture de défense de Lyon. À voir : sa grille de défense unique en France, ses coffres de contre-escarpe, une reproduction grandeur réelle d'un canon de 120, la maquette du fort, une exposition sur la construction de l'ouvrage."
Château de Saint-Priest,2 rue de l'égalité,69800,Saint-Priest,,45.696783,4.944653,04 78 21 25 58,,,Tram T2 et bus C25 : arrêt Saint-Priest - Jules Ferry.,XVe-XXe ,Château médiéval remanié aux époques moderne et contemporaine.
Centre de maintenance des tramways T1 et T2,Cours du professeur Jean Bernard,69800,Saint-Priest,,45.717851,4.929235,,,,Tram T2 : Porte des Alpes,XXIe ,Centre de remisage et de maintenance des rames du tramway de Lyon réalisé par le cabinet d'architecture Ferrandet inauguré en 2001.
Eglise,1 place Favard,69800,Saint-Priest,,45.697502,4.943654,,,,Tram T2 et bus C25 : arrêt Saint-Priest - Jules Ferry.,,Eglise du village dont la dernière grande rénovation date de 1833. La récente réfection de son parvis et de son sol ont mis au jour un tombeau et plusieurs sépultures.
Artothèque - Archives municipales,Rue Léon Perrier,69800,Saint-Priest,,45.695155,4.936122,﻿﻿04 27 86 53 27,artotheque@mairie-saint-priest.fr,,Tram T2 Saint-Priest Hôtel de Ville.,,"Les Archives municipales de Saint-Priest disposent, depuis 2014, de nouveaux magasins situés sous l'Artothèque, dans l'ancien tri postal totalement réaménagé pour répondre aux normes de conservation actuelle."
Eglise,Place de l'Église,69270,Saint-Romain-au-Mont-d'Or,,45.837322,4.823051,,,,Bus 43 : quai de Charézieux - parking sur les quais ou à Saint Romain,XIIe-XVe-XVIIe,"Vitrail et bénitier classés Monuments historiques, clocher et chœur inscrits à l'inventaire supplémentaire."
Route du Mont-Thou,0,69270,Saint-Romain-au-Mont-d'Or,,45.842655,4.805909,,,,,,
Saint-Romain centre,0,69270,Saint-Romain-au-Mont-d'Or,,45.838005,4.824919,,,,Bus 40 sur rive gauche : Ecluse Rochetaillée et marche 20 mn environ - Parking sur quais de Saône ou à Saint-Romain,,
ZAC Castellane,"Place du Belvédère, à partir du 24 boulevard Castellane",69580,Sathonay-Camp,,45.823663,4.873513,,,,Bus C2 : Perica Mercleres / Bus 9 : Sathonay Mairie,,"Zone d’Aménagement Concertée en cours de construction, achevée à 60%, qui doublera à terme la population de la commune."
Eglise Saint-Laurent,Route de Saint-Trivier,69580,Sathonay-Village,,45.831280,4.878380,,,,Bus 77 : Sathonay-Village Eglise,XIXe ,Église néo-gothique construite en 2 étapes (1862 et 1867) à l'emplacement d'une autre église datant du XIIIe siècle.
Mairie,1 rue Saint-Maurice,69580,Sathonay-Village,,45.831858,4.880836,,,,Bus 77 : Église - Parking : place Louis Danis et parc de la Mairie,XIXe ,Sous-sols de la mairie : cave à neige et exposition d'outils et d'objets anciens.
Médiathèque de Solaize,Place de la Mairie,69360,Solaize,,45.639438,4.840425,,,,Bus 39 : Place de la Mairie,XXIe ,Médiathèque installée dans un jardin public et adossée à un mur bordant la place du centre bourg. Inaugurée en 2004.
Eglise Saint-Claude,Place de Tassin,69160,Tassin-la-Demi-Lune,,45.761076,4.759558,,,,Bus 5 et 98 : Tassin Gare - Bus 72 : Tassin Depéret,XIXe ,Bâtiment de style néo-roman plaqué de pierres dorées abritant un chemin de croix sculpté dans le bois par Robert Darnas qui a aussi réalisé le tympan et le linteau du porche d'entrée.
Atrium,35 avenue du 8 mai 1945,69160,Tassin-la-Demi-Lune,,45.760443,4.771264,04 78 34 70 07,atrium@villetassinlademilune.fr,http://www.tassinlademilune.fr/loisirs/l-atrium.htm,"Bus 55, 98, 55 : Trois Renards ; Bus 5, Bus 14",XXe ,Centre culturel et Bureau information jeunesse.
Association Côté jardin,Angle chemin Antoine Pardon et rue Finat Duclos,69160,Tassin-la-Demi-Lune,,45.758227,4.751785,,,,Bus 72 : Tassin les Bruyères,XXe ,"Potager biologique, collectif et éducatif d’1 ha créé en 1989."
Mairie,Place Hippolyte Péragut,69160,Tassin-la-Demi-Lune,,45.761624,4.777222,,,,Bus 72 et 98 : Tassin Centre social,,
Planétarium,Place de la Nation,69120,Vaulx-en-Velin,,45.778104,4.921714,04 78 79 50 13,,http://www.planetariumvv.com,Bus C3 : arrêt Hôtel de ville/Campus,XXe ,"Le Planétarium de Vaulx-en-Velin a fêté ses 20 ans en 2015. Agrandi en 2013, il est aujourd'hui un lieu culturel atypique."
Musée des Sapeurs pompiers,19bis avenue du Bataillon-Carmagnole-Liberté,69120,Vaulx-en-Velin,,45.758955,4.927588,,,,"Métro A, Tram T3 (Gare Part-Dieu ; Meyzieu) - Bus C8, C15, 16, 52, 68, 83, Zi3, Zi4, Zi5 et 100 Eurexpo. En voiture : Périphérique Laurent Bonnevay, sortie Vaulx La Soie. (15 mn du centre de Lyon)",XXe ,"Situé à proximité des usines Tase, le bâtiment industriel est la réserve des véhicules de collection du musée des sapeurs-pompiers Lyon-Rhône. Plus de 200 véhicules, échelles et pompes à bras retraçent l'histoire de la lutte contre le feu et autres catastrophes."
Usine TASE,14 allée du Textile,69120,Vaulx-en-Velin,,45.761050,4.925967,,,,"Métro A, Tram T3,  Bus C8 : Vaulx-en-Velin la Soie",XXe ,Atelier de tissage en activité disposant de matériels anciens et de machines actuelles.
Eglise Saint-Thomas,16 avenue Pablo Picasso,69120,Vaulx-en-Velin,,45.775874,4.916691,,,,Bus C8 : arrêt Vaulx Picasso,XXIe  ,"Seule église XXIe siècle de la Métropole, inaugurée en décembre 2012."
Maison du projet Carré de Soie,3 avenue des Canuts,69120,Vaulx-en-Velin,,45.761199,4.922979,,,,"Tram T3 - Métro A - Bus C18, C15, 16, 57, 68, 83 : Vaulx-en-Velin / La Soie ",,"Lieu d'exposition autour du projet urbain du Carré de Soie. Présentation des principes du projet urbain, maquette virtuelle, cartographies et panneaux historiques."
Bibliothèque Georges Pérec,Rue Louis Michoy,69120,Vaulx-en-Velin,,45.785859,4.911126,,,,"Bus C3, 7, 37, 52 : Hôtel de Ville",,
Grand Parc de Miribel Jonage,Chemin de la Bletta,69120,Vaulx-en-Velin,,45.798469,4.940951,04 78 80 56 20,info@grand-parc.fr,http://www.grand-parc.fr,Bus 95 : Meyzieu-Parc du Grand Large ; Pistes cyclables,,
Ancien cimetière,Rue Catherine de Chaponnay,69200,Vénissieux,,45.705198,4.883609,,,,"Métro D, Tram T4 : Gare de Vénissieux",XIXe ,"Créé en 1819, le cimetière comprend de nombreuses stèles du XIXe siècle et du début du XXe siècle. "
Eglise Sainte-Jeanne d'Arc,Place Jeanne d'Arc- rue Jeanne Labourbe,69200,Vénissieux,,45.717669,4.885757,,,,"Métro D, C23, C25, 39, 79, 296 : Parilly",XXe ,"Eglise atypique, construite de 1931 à 1933. Les vitraux du chœur représentent la Sainte Famille et le monde ouvrier, avec en fond les usines Berliet. L'édifice et les vitraux sont inscrits à l'inventaire supplémentaire des Monuments historiques."
Médiathèque Lucie Aubrac,2 - 4' avenue Marcel Hoüel,69200,Vénissieux,,45.41465,4.53048,,,,"Tram T4, bus C12 : Marcel Hoüel-Hôtel de Ville",XXe ,"Médiathèque construite par Dominique Perrault, également architecte de la Bibliothèque nationale de France."
Théâtre de Vénissieux,8 boulevard Laurent Gerin,69200,Vénissieux,,45.704291,4.882081,,,,"Métro D, Tram T4 : Gare de Vénissieux - Bus 93 :  Langevin",,Le Théâtre de Vénissieux est un bâtiment situé au coeur de la Maison du Peuple.
Institut Bioforce,41 avenue du 8 Mai 1945,69200,Vénissieux,,45.690949,4.866407,04 72 89 31 41,,,,,
Station service de Jean Prouvé,641 route de Givors,69390,Vernaison,,45.642292,4.809804,,,,SNCF : Gare de Vernaison,XXe ,"La station service conçue par Jean Prouvé pour Total et bâtie en 1969, est une rotonde en structure métallique et panneaux stratifiés. Après une brève période de ruine, elle est devenue ""Lieux-Dits"", agence d'architecture, d'arts plastiques et d'urbanisme depuis 1989."
Office de Tourisme,14 cours Brillier,38200,Vienne,Vienne,45.521896,4.871344,04 74 53 80 30,,http://www.vienne-tourisme.com,,,
Centre commun des collections de Géologie - Université Lyon 1 - Bâtiment Darwin-D ,2  rue Raphaël Dubois,69100,Villeurbanne,,45.780590,4.866983,Tram T1 : Université Lyon 1,,,,XIXe ,"Collections, principalement de Paléontologie, témoignage de 200 ans de collectes, sont un patrimoine scientifique de très grande renommée."
Université Lyon 1 - Herbiers de l'Université,9 rue Raphaël Dubois,69100,Villeurbanne,,45.780590,4.866983,,,,Tram T1 : Université Lyon 1,XIXe ,Bâtiment sur trois niveaux de 2250 m2 contenant des collections historiques de botanique et de mycologie.
Cimetière ancien de Cusset,1 rue du cimetière,69100,Villeurbanne,,45.765098,4.911704,,,,"Métro A, Bus C3 : Laurent Bonnevay Astroballe",XIXe ,Ce cimetière surprend par la beauté de ses monuments parmi lesquels on compte l'une des rares tombes de style Art Nouveau de l'agglomération lyonnaise et plusieurs tombes de style Art Déco.
Centrale hydroélectrique de Cusset,82 rue de Pierrefrite,69100,Villeurbanne,,45.766827,4.914129,,,,"Métro A, Bus C3, C8, 11, C15, C17, 7, 57, 67, 83 : Laurent Bonnevay-Astroballe",XIXe ,"Ouvrage industriel et ouvrage d'art construit en 1899, il est à l’époque la centrale la plus puissante au monde."
Chapelle de la communauté des filles de Saint Paul,81 rue Pierre Voyant,69100,Villeurbanne,,45.768166,4.900005,,,,"Metro A, Bus C17 : Cusset",XIXe-XXIe,Chapelle entièrement rénovée en 2003 et décorée par un artiste verrier.
Ecole Nationale de Musique de Villeurbanne,46 cours de la République,69100,Villeurbanne,,45.766918,4.872995,,,,"Métro A : République – Bus 27 : École Nationale de Musique, C3 : Institut d’Art Contemporain",XIXe-XXe-XXIe ,L'école s'est implantée dans les locaux de l'ancien Orphelinat de Villeurbanne.
La Paillasse Saône,1 rue du Luizet,69100,Villeurbanne,,45.783683,4.884674,,,,"Tram T1 : Croix Luizet, continuer sur l'avenue Albert Einstein puis deux fois à droite sur la rue du Luizet.",XXe,"Laboratoire de recherche ouvert, citoyen et collaboratif au service du développement durable, la Paillasse Saône est un espace de liberté, d'éducation et d'apprentissage des sciences et de développement de projets innovants dans les domaines des technologies propres et des sciences du vivant. "
Gratte-ciel centre-ville,6 avenue Henri Barbusse,69100,Villeurbanne,,45.769135,4.879149,,,,Métro A : Gratte-ciel,XXe-XXIe ,"Le projet Gratte-Ciel centre-ville, un renouvellement urbain dans un quartier historique. L'ambition du projet est de faire perdurer la vision avant-gardiste de Morice Leroux, avec une architecture du XXIe siècle qui ait la même force et qui puise dans les exigences contemporaines les éléments de sa modernité."
"Le Rize, Centre Mémoires et Société",23-25 rue Valentin Haüy,69100,Villeurbanne,,45.759433,4.884172,,,http://lerize.villeurbanne.fr,Bus C3 : Blanqui - Centre mémoires & société - Bus C11 : Arago - Bus C26 : Verlaine - 4 Août - Bus C9 : Reconnaissance - Balzac - Bus 69 : Verlaine - Tram T3 : Reconnaissance – Balzac - Métro A : Gratte-ciel,XXe-XXIe,"Situé dans un bâtiment réhabilité de type industriel, ancien dépôt d'archives du Crédit Lyonnais, le Rize est un espace de culture et d’échange."
"Maison du livre, de l'image et du son François Mitterrand",247 cours Emile Zola,69100,Villeurbanne,,45.768010,4.887696,04 78 68 04 04,,,"Métro A, bus 69 : Flachet",XXe ,"Ce remarquable bâtiment, inauguré en 1988 et conçu par l’architecte suisse Mario Botta, abrite la principale médiathèque de Villeurbanne."
Théâtre National Populaire,8 place du Docteur Lazare Goujon,69100,Villeurbanne,,45.766345,4.879554,04 78 03 30 00,billetterie@tnp-villeurbanne.com,http://www.tnp-villeurbanne.com,"Métro A : Gratte-Ciel - Bus C3 : Paul Verlaine – Bus 27, 69, C26 : Mairie de Villeurbanne",XXe ,"Centre dramatique national, le TNP exerce une mission de service public à travers la création et l'accueil de spectacles accessibles à tous."
Institut d'Art Contemporain,11 rue Docteur Dolard,69100,Villeurbanne,,45.762476,4.872353,04 78 03 47 00,iac@i-art-c.org,http://www.i-art-c.org,"Métro A : République - Bus C3, 27 : Institut d’art contemporain - Bus C9 : Ferrandière",XXe ,"Outil de création, d'expérimentation et de recherche, l'institut relie une activité d'expositions et de rencontres à la constitution d'une collection d'œuvres au rayonnement international."
Urdla - Centre international de l'estampe,207 rue Francis de Pressensé,69100,Villeurbanne,,45.770984,4.887985,04 72 65 33 34,urdla@urdla.com,,"Métro A, Bus 69 : Flachet",XXe ,"Situé dans une ancienne usine, l'URDLA est un centre d'art contemporain dédié à l'estampe."
Cimetière nouveau de Cusset,192 rue Léon Blum,69100,Villeurbanne,,45.761876,4.911071,,,,"Métro A, Bus C3 : Laurent Bonnevay Astroballe",XXe ,Ce cimetière accueille les tombes de migrants venus du monde entier trouver à Villeurbanne le travail et la liberté. 
Eglise de la Sainte-Famille de Croix-Luizet,9 rue Longchamp,69100,Villeurbanne,,45.780289,4.887412,,,,"Bus C17, 37 : Longchamp",XXe ,"Église conçue dans le style Art déco, partiellement en béton, grâce à la participation de la population italienne à Villeurbanne."
Les Gratte-ciel - Appartement témoin,15 avenue Henri Barbusse,69100,Villeurbanne,,45.768518,4.879494,,,,"Métro A : Gratte-Ciel - Bus C26, 69 : Gratte-Ciel Verlaine",XXe ,"La visite de l'appartement témoin des Gratte-ciel vous invite à plonger au cœur de l'habitat social des années 1930, par l'intermédiaire d'une reconstitution historique des plus minutieuses."
Nécropole Nationale de la Doua,30 avenue Albert Einstein,69100,Villeurbanne,,45.782983,4.880587,,,,Tram T1 : Croix-Luizet,XXe ,Nécropole regroupant des combattants morts pour la France durant les conflits contemporains.
MJC Villeurbanne,46 cours Damidot,69100,Villeurbanne,,45.761362,4.886163,,,,"Bus C26, 69 : Verlaine 4 aout",XXe ,
Mosquée Othmane,51 rue Octavie,69100,Villeurbanne,,45.778864,4.888974,,,,Bus C17 : Place des Buers - Bus 37 : Longchamp - Tram T1 : Croix-Luizet,XXIe ,"Mosquée entièrement reconstruite en 2004, elle comprend, sur trois niveaux, plusieurs salles de prières, des salles pour l'enseignement des langues et l'enseignement spirituel."
Village Vertical,3 rue Raymond Terracher,69100,Villeurbanne,,45.758773,4.878549,,,,"Bus C9, 69 : Maisons Neuves, C11 : Florian",XXIe  ,"Le Village Vertical est la première coopérative d'habitants créée en France au XXIe siècle, en partenariat avec l'association Habicoop qui oeuvre à l'émergence d'un mouvement national des coopératives d'habitants, et avec le bailleur HLM Rhône Saône Habitat. "
Eglise Saint-Athanase,11 rue Pierre Baratin,69100,Villeurbanne,,45.765049,4.901119,,,,"Métro A, Bus C17 : Cusset",,"Ancienne église paroissiale, aujourd'hui lieu de culte des catholiques ukrainiens de rite gréco-byzantin et symbole multiculturel."
Temples maçonniques,76 cours Tolstoï,69100,Villeurbanne,,45.762889,4.877349,,,,"Bus C3, 69 : Verlaine - Métro A : Flachet ou République",,Cinq temples maçonniques dont un de 300 places et les quatre autres de 100 places.
Pôle PIXEL - Bât. Le Cube,50 rue Antoine Primat,69100,Villeurbanne,,45.758220,4.898440,,,,"Bus C3, C11 : Cyprian Léon Blum",,Youfactory est une plateforme partagée de production dédiée au prototypage et à la fabrication de pièces uniques et de petites séries.
Université de Lyon-Campus Lyon-Tech la Doua,43 boulevard du 11 novembre 1918,69100,Villeurbanne,,45.781262,4.867394,,,,"Tram T1, T4 : La Doua Gaston Berger",,Le campus de LyonTech-la Doua compte aujourd’hui 22 000 étudiants et regroupe 40% du potentiel scientifique lyonnais. Des aménagements récents ont permis de le labelliser Eco-campus.
Parc de la Feyssine,Boulevard Laurent Bonnevay - Avenue Monin,69100,Villeurbanne,,45.787809,4.883660,,,,"Tram T1 : IUT Feyssine - Bus C1, 4 : Cité internationale, Centre de Congrès (puis traverser le boulevard de Stalingrad)",,Parc naturel urbain.
Unité de transport Bus La Soie,88 chemin de la Poudrette,69100,Villeurbanne,,45.753658,4.920431,,,,"Métro A, Tram T3, C8, C15 : La Soie",,
Mairie de Villeurbanne,1 place du Docteur Lazare Goujon,69100,Villeurbanne,,45.766355,4.879560,04 78 03 67 67,,,Métro A : Gratte-Ciel,,